{"type":"FeatureCollection","features":[{"type":"Feature","properties":{"Name":"CAMINO DE LOS SANTUARIOS COMPLETO (POR ALLES): OVIEDO-SANTO ... - Wikiloc","creator":"Wikiloc - https://www.wikiloc.com","segment_count":1,"point_count":497,"length_km":204.691,"start_time":"2022-08-13T05:37:33Z","end_time":"2023-03-26T10:15:56Z"},"geometry":{"type":"LineString","coordinates":[[-5.844049,43.362331,230.965],[-5.842325,43.362018,229.268],[-5.842228,43.363624,219.814],[-5.819629,43.369084,172.509],[-5.810429,43.374943,173.917],[-5.792123,43.37809,168.729],[-5.78491,43.380656,167.67],[-5.775948,43.380021,177.365],[-5.773285,43.378134,184.91],[-5.765702,43.377298,182.439],[-5.761233,43.377962,180.989],[-5.753124,43.377125,180.92],[-5.751566,43.378004,193.854],[-5.743868,43.374761,192.163],[-5.73009,43.376248,181.744],[-5.729318,43.377543,183.518],[-5.730983,43.378232,185.309],[-5.731407,43.38093,188.937],[-5.727145,43.385724,200.479],[-5.730388,43.38582,198.43],[-5.728849,43.388425,191.255],[-5.722654,43.389821,183.06],[-5.719746,43.388692,189.089],[-5.712915,43.393955,190.029],[-5.705762,43.394538,199.33],[-5.703662,43.392994,188.774],[-5.702435,43.393988,189.279],[-5.694236,43.394348,192.905],[-5.693134,43.393355,192.025],[-5.695683,43.389803,225.009],[-5.69586,43.387636,235.618],[-5.694529,43.387509,238.35],[-5.68582,43.390592,239.291],[-5.679063,43.390148,253.276],[-5.666193,43.393539,220.161],[-5.652649,43.3925,234.05],[-5.646439,43.394783,229.72],[-5.636743,43.393704,233.671],[-5.635869,43.394525,250.815],[-5.628056,43.393758,252.951],[-5.625984,43.394646,246.701],[-5.610264,43.389183,277.211],[-5.608957,43.387179,262.909],[-5.592362,43.381641,244.126],[-5.584022,43.383551,240.888],[-5.579025,43.381418,254.849],[-5.570154,43.383332,279.964],[-5.555518,43.379472,266.319],[-5.550338,43.380989,287.948],[-5.547842,43.380003,301.578],[-5.541137,43.38119,280.119],[-5.529225,43.379629,308.453],[-5.519408,43.380403,282.648],[-5.51389,43.375827,278.061],[-5.513843,43.374145,271.417],[-5.515444,43.371843,266.409],[-5.519431,43.369663,274.935],[-5.513969,43.367384,269.627],[-5.512584,43.364009,259.398],[-5.507852,43.358462,247.833],[-5.500555,43.360187,242.028],[-5.495005,43.357308,251.557],[-5.488386,43.357144,250.327],[-5.485178,43.358905,225.448],[-5.476059,43.359344,253.452],[-5.471223,43.363819,270.997],[-5.467399,43.364248,260.523],[-5.465208,43.36397,254.925],[-5.464387,43.362399,237.209],[-5.463442,43.363041,246.53],[-5.44656,43.359772,244.952],[-5.442482,43.361465,222.773],[-5.43709,43.36174,190.358],[-5.426389,43.365755,224.043],[-5.419547,43.366033,266.742],[-5.410783,43.368379,242.872],[-5.406672,43.368079,253.093],[-5.40052,43.365784,240.067],[-5.403538,43.363153,184.949],[-5.401177,43.36149,174.702],[-5.396216,43.361529,194.422],[-5.397272,43.359442,220.809],[-5.392901,43.35897,227.945],[-5.390464,43.361069,197.447],[-5.384463,43.359076,175.228],[-5.38411,43.355276,170.913],[-5.382558,43.35409,164.838],[-5.377304,43.351135,161.627],[-5.372489,43.351451,149.477],[-5.371509,43.350591,156.018],[-5.374554,43.349203,159.392],[-5.371741,43.350286,149.564],[-5.371899,43.352124,153.106],[-5.367241,43.351086,154.816],[-5.358613,43.342918,149.309],[-5.354128,43.345113,144.997],[-5.353264,43.344618,150.799],[-5.35029,43.346938,149.74],[-5.34536,43.347524,174.925],[-5.344138,43.345916,206.22],[-5.337891,43.344808,207.279],[-5.334329,43.346426,184.849],[-5.329313,43.346865,214.67],[-5.327933,43.343916,267.934],[-5.319876,43.345579,238.928],[-5.320582,43.348259,225.989],[-5.318842,43.350159,199.317],[-5.316945,43.348154,181.509],[-5.315196,43.350162,202.853],[-5.310246,43.350169,212.145],[-5.309108,43.35259,196.046],[-5.310416,43.354558,172.281],[-5.306217,43.359365,115.296],[-5.294772,43.363576,159.855],[-5.292654,43.363239,166.255],[-5.289487,43.360579,177.466],[-5.283257,43.36032,181.26],[-5.282111,43.362707,182.274],[-5.277161,43.36408,131.256],[-5.27638,43.363052,112.121],[-5.273834,43.364271,117.909],[-5.270939,43.363162,106.068],[-5.271772,43.362057,106.25],[-5.271101,43.360951,98.481],[-5.262786,43.362101,118.046],[-5.255527,43.357892,94.471],[-5.251587,43.357565,92.04],[-5.247699,43.358849,80.72],[-5.245469,43.357781,85.291],[-5.244187,43.359584,99.265],[-5.237503,43.361085,110.447],[-5.236733,43.357445,90.429],[-5.230804,43.355344,94.421],[-5.22746,43.356769,64.009],[-5.223336,43.355942,102.745],[-5.218963,43.357328,112.017],[-5.218427,43.356296,126.128],[-5.208681,43.355467,130.163],[-5.202565,43.358109,69.248],[-5.192789,43.35641,64.087],[-5.19096,43.357073,66.197],[-5.185448,43.361489,72.338],[-5.184756,43.36484,85.532],[-5.181826,43.364752,63.515],[-5.182079,43.366932,37.565],[-5.18008,43.366735,39.311],[-5.177347,43.364587,72.909],[-5.177704,43.366877,86.612],[-5.17365,43.367048,120.384],[-5.164219,43.36643,123.625],[-5.163277,43.364651,120.81],[-5.160751,43.366031,124.685],[-5.162024,43.367458,122.744],[-5.158461,43.368631,115.874],[-5.153923,43.365797,82.655],[-5.154907,43.365044,79.369],[-5.152845,43.363582,61.279],[-5.151267,43.364148,51.005],[-5.151875,43.364629,49.725],[-5.150462,43.366972,52.609],[-5.15278,43.363748,58.528],[-5.152178,43.362613,62.96],[-5.146645,43.360328,63.821],[-5.144776,43.358133,77.866],[-5.135313,43.35563,62.771],[-5.132841,43.350272,63.85],[-5.12828,43.350038,64.93],[-5.126997,43.348518,85.361],[-5.125432,43.348714,91.425],[-5.125212,43.350289,73.795],[-5.126245,43.351039,64.349],[-5.12379,43.351633,63.523],[-5.117856,43.350845,68.709],[-5.110955,43.352205,85.97],[-5.094402,43.352947,81.782],[-5.091109,43.35029,78.443],[-5.086791,43.351117,90.838],[-5.084041,43.348772,85.613],[-5.08486,43.348191,79.162],[-5.083061,43.345649,90.332],[-5.084607,43.339924,96.563],[-5.083009,43.332677,106.027],[-5.080761,43.330936,108.319],[-5.081262,43.328824,115.609],[-5.07424,43.319998,134.919],[-5.073923,43.317495,142.209],[-5.066775,43.31401,151.422],[-5.063754,43.314247,157.284],[-5.061199,43.312475,158.625],[-5.053776,43.310961,181.45],[-5.050797,43.309236,199.885],[-5.053743,43.307491,234.224],[-5.05427,43.308491,253.494],[-5.058678,43.308456,259.765],[-5.058567,43.309629,241.679],[-5.060535,43.311161,226.724],[-5.07388,43.317438,142.604],[-5.074299,43.320002,135.514],[-5.077813,43.323257,126.009],[-5.078462,43.326134,126.123],[-5.081152,43.328941,119.665],[-5.078963,43.332237,122.636],[-5.076349,43.333149,172.281],[-5.077125,43.334992,219.236],[-5.075461,43.336703,217.175],[-5.074596,43.33627,211.725],[-5.074826,43.338883,172.896],[-5.071691,43.339485,172.36],[-5.069047,43.342876,148.211],[-5.07142,43.342517,128.221],[-5.069851,43.344512,103.603],[-5.070788,43.345147,93.009],[-5.068346,43.346284,91.092],[-5.063063,43.346026,96.734],[-5.061241,43.343273,113.615],[-5.063289,43.341865,137.57],[-5.063039,43.339873,159.855],[-5.059694,43.339271,185.024],[-5.058986,43.343036,158.284],[-5.056064,43.34351,147.195],[-5.055141,43.344683,135.119],[-5.056583,43.346309,112.441],[-5.064358,43.346413,96.081],[-5.066076,43.347053,94.709],[-5.065772,43.348215,95.709],[-5.064049,43.347736,103.835],[-5.063433,43.348762,126.777],[-5.056115,43.349647,172.698],[-5.051652,43.347726,130.683],[-5.04807,43.348099,139.348],[-5.050005,43.344389,150.427],[-5.046606,43.344856,123.787],[-5.039055,43.341633,128.638],[-5.034991,43.343407,127.762],[-5.0185,43.345327,141.445],[-5.01623,43.342138,147.547],[-5.010747,43.338054,180.011],[-5.007826,43.336127,200.509],[-5.003858,43.335566,175.955],[-5.000372,43.337318,164.517],[-4.995678,43.337488,178.118],[-4.988075,43.336318,195.943],[-4.980618,43.336839,203.938],[-4.969831,43.33458,198.547],[-4.952318,43.335442,236.917],[-4.951418,43.334492,243.378],[-4.947428,43.334547,249.382],[-4.927269,43.341088,276.854],[-4.92404,43.340467,283.156],[-4.922901,43.343727,313.811],[-4.923348,43.34585,331.909],[-4.914184,43.343562,382.996],[-4.914689,43.338525,387.748],[-4.912172,43.336463,400.159],[-4.907915,43.335687,414.914],[-4.902265,43.338055,424.589],[-4.895124,43.334962,451.698],[-4.89459,43.334225,464.078],[-4.89555,43.333569,475.589],[-4.893927,43.333003,482.783],[-4.887665,43.334187,501.935],[-4.879957,43.337357,514.886],[-4.87467,43.336537,525.814],[-4.873072,43.334993,480.909],[-4.873752,43.333814,458.074],[-4.872835,43.332686,440.516],[-4.871656,43.335538,457.897],[-4.869634,43.336398,449.022],[-4.865527,43.327454,449.717],[-4.863218,43.325805,420.416],[-4.855973,43.324574,361.586],[-4.856286,43.32325,345.677],[-4.853933,43.322025,335.611],[-4.852761,43.319506,294.786],[-4.849104,43.318262,260.16],[-4.854258,43.317336,216.826],[-4.851601,43.316244,200.409],[-4.846717,43.317084,186.789],[-4.845374,43.314723,175.091],[-4.842297,43.31476,172.572],[-4.83928,43.312667,166.747],[-4.838504,43.309311,157.972],[-4.833453,43.307657,152.141],[-4.832588,43.305081,170.791],[-4.822396,43.301379,164.592],[-4.816039,43.303367,143.886],[-4.81674,43.307493,156.014],[-4.81457,43.310739,170.954],[-4.808958,43.311656,177.809],[-4.807678,43.315863,199.309],[-4.803179,43.317538,219.262],[-4.804135,43.322394,252.114],[-4.805843,43.32345,267.675],[-4.802671,43.324024,283.27],[-4.802604,43.326954,317.715],[-4.800982,43.329238,341.444],[-4.799054,43.327814,356.424],[-4.795339,43.328513,351.965],[-4.794862,43.32663,372.639],[-4.789708,43.326017,426.244],[-4.783691,43.327144,402.405],[-4.772749,43.326624,373.215],[-4.773842,43.327204,361.909],[-4.764626,43.328267,323.515],[-4.755216,43.3276,203.947],[-4.754019,43.32966,235.868],[-4.751829,43.329813,247.033],[-4.75383,43.332822,278.528],[-4.752921,43.334743,274.577],[-4.75051,43.334354,267.367],[-4.750019,43.335252,266.828],[-4.743265,43.331586,316.372],[-4.739177,43.332806,251.511],[-4.738014,43.332188,220.721],[-4.737786,43.33326,216.803],[-4.730717,43.331783,227.409],[-4.731015,43.33686,214.582],[-4.729479,43.335775,221.594],[-4.725446,43.335835,237.035],[-4.72702,43.335088,222.14],[-4.725971,43.334677,211.435],[-4.723475,43.336942,208.744],[-4.72165,43.335794,215.464],[-4.719233,43.337437,224.345],[-4.718358,43.335284,237.769],[-4.715205,43.333895,253.421],[-4.710475,43.336597,266.941],[-4.703018,43.332089,265.505],[-4.701013,43.329627,292.709],[-4.699866,43.330328,279.743],[-4.701882,43.331554,274.495],[-4.70237,43.333046,244.396],[-4.701578,43.333381,235.441],[-4.70425,43.333936,218.966],[-4.69486,43.33314,143.965],[-4.689816,43.329288,104.925],[-4.684418,43.334246,160.496],[-4.684187,43.339152,222.32],[-4.680456,43.337425,253.143],[-4.680181,43.338501,227.664],[-4.676928,43.338747,167.01],[-4.673365,43.336208,157.609],[-4.67145,43.335845,145.535],[-4.670522,43.336783,126.527],[-4.669743,43.335458,127.288],[-4.666232,43.335098,130.053],[-4.663439,43.336526,128.398],[-4.660812,43.335826,128.967],[-4.657421,43.336832,135.467],[-4.656544,43.334914,138.998],[-4.652931,43.336013,156.872],[-4.649125,43.335682,198.574],[-4.649731,43.334635,179.956],[-4.644921,43.335898,161.821],[-4.64458,43.334846,167.709],[-4.641788,43.334442,134.728],[-4.642147,43.333567,123.31],[-4.640674,43.33243,120.021],[-4.635065,43.332787,131.396],[-4.632631,43.331671,188.111],[-4.634884,43.330051,248.04],[-4.634467,43.329228,275.76],[-4.630066,43.328301,286.651],[-4.626992,43.330924,295.135],[-4.619977,43.332764,235.754],[-4.620696,43.33522,242.756],[-4.616603,43.335789,245.211],[-4.61428,43.331578,189.409],[-4.615077,43.33107,172.676],[-4.614472,43.329252,162.218],[-4.602651,43.325594,87.039],[-4.594815,43.325135,24.844],[-4.589576,43.327419,30.529],[-4.584212,43.32587,24.598],[-4.584403,43.322218,30.268],[-4.583407,43.321612,34.159],[-4.578753,43.321268,89.773],[-4.574236,43.324098,67.614],[-4.571041,43.321815,23.554],[-4.567055,43.32302,80.909],[-4.563734,43.321071,105.909],[-4.554005,43.321812,133.452],[-4.547967,43.321008,179.754],[-4.543873,43.319076,217.515],[-4.538255,43.318889,216.56],[-4.52675,43.315711,103.885],[-4.522898,43.319457,91.054],[-4.520451,43.320247,93.614],[-4.499175,43.320279,147.055],[-4.497697,43.319626,150.819],[-4.4983,43.31745,165.043],[-4.494291,43.315213,143.564],[-4.492407,43.315291,151.01],[-4.491336,43.312337,149.609],[-4.486179,43.309977,189.885],[-4.47494,43.309319,139.517],[-4.474104,43.307848,131.058],[-4.475497,43.306724,115.693],[-4.468829,43.303953,83.498],[-4.465889,43.304357,81.097],[-4.458297,43.296265,142.997],[-4.459026,43.294163,159.228],[-4.468083,43.293345,187.542],[-4.471178,43.289122,171.828],[-4.478057,43.287298,178.289],[-4.483946,43.283068,194.617],[-4.483777,43.278894,178.309],[-4.486049,43.272302,223.113],[-4.485063,43.26916,208.665],[-4.486668,43.26605,211.516],[-4.487061,43.261744,233.831],[-4.482473,43.256524,224.486],[-4.48318,43.255382,229.365],[-4.482473,43.254015,232.425],[-4.483565,43.253169,239.056],[-4.491979,43.253272,261.06],[-4.494704,43.254332,268.579],[-4.508536,43.254006,330.805],[-4.51254,43.254743,341.825],[-4.510829,43.254973,357.209],[-4.512363,43.255609,376.758],[-4.520693,43.256552,445.18],[-4.524296,43.254705,510.931],[-4.532358,43.253615,573.876],[-4.533652,43.251411,589.471],[-4.538747,43.250966,634.89],[-4.53843,43.248941,645.81],[-4.542955,43.243068,630.671],[-4.541959,43.241898,620.575],[-4.545977,43.240247,582.644],[-4.547133,43.235583,543.805],[-4.549668,43.235707,500.315],[-4.545613,43.230957,562.609],[-4.546724,43.230487,576.545],[-4.545669,43.229707,600.357],[-4.546365,43.227948,627.148],[-4.549818,43.227248,670.083],[-4.550631,43.225873,704.888],[-4.55405,43.226359,742.157],[-4.55145,43.222572,831.877],[-4.552149,43.221853,863.038],[-4.55544,43.222199,921.182],[-4.554919,43.220705,950.818],[-4.557332,43.220346,966.698],[-4.560706,43.222797,842.517],[-4.561771,43.220157,769.009],[-4.564977,43.219933,730.952],[-4.56977,43.216914,632.984],[-4.568818,43.215959,622.765],[-4.572761,43.216817,554.27],[-4.571444,43.215858,532.565],[-4.576964,43.215695,476.474],[-4.578603,43.217437,434.174],[-4.578418,43.21865,417.995],[-4.580649,43.21698,362.949],[-4.584277,43.217661,290.526],[-4.585872,43.21642,280.547],[-4.584144,43.2145,258.211],[-4.589921,43.215223,207.809],[-4.589665,43.213617,211.193],[-4.591914,43.212264,204.645],[-4.594476,43.212488,206.976],[-4.592419,43.213774,219.041],[-4.593968,43.21659,257.566],[-4.593437,43.217792,278.995],[-4.596312,43.215589,301.725],[-4.599094,43.216398,347.626],[-4.601043,43.21453,389.15],[-4.601795,43.215432,428.853],[-4.608634,43.213711,561.204],[-4.614109,43.214416,538.514],[-4.613227,43.21375,523.809],[-4.623958,43.209647,570.776],[-4.62132,43.207597,542.798],[-4.620472,43.208188,530.069],[-4.620435,43.206578,519.384],[-4.617467,43.206744,529.429],[-4.617722,43.204912,530.928],[-4.61098,43.204984,529.968],[-4.611371,43.20245,495.119],[-4.609942,43.200917,466.893],[-4.6109,43.200546,455.513],[-4.611595,43.197377,421.243],[-4.608578,43.194579,346.007],[-4.609512,43.193528,312.309],[-4.608082,43.193242,291.692],[-4.606466,43.190745,245.284],[-4.607393,43.186399,257.595],[-4.600652,43.174175,268.63],[-4.611337,43.161034,273.175],[-4.622297,43.153765,298.754],[-4.634638,43.153404,320.614],[-4.641852,43.154922,360.995],[-4.6445,43.153674,390.889],[-4.646193,43.154053,404.489],[-4.651697,43.150516,483.406],[-4.654258,43.150062,499.026]]}}]}