{
  "type": "FeatureCollection",
  "name": "conexion_por_urt",
  "crs": {
    "type": "name",
    "properties": {
      "name": "urn:ogc:def:crs:OGC:1.3:CRS84"
    }
  },
  "features": [
    {
      "type": "Feature",
      "properties": {
        "name": "Conexión por Urt (Godesalco)",
        "source": "https://godesalco.com/maps/urt",
        "point_count": 719,
        "length_km_geodesic": 36.281
      },
      "geometry": {
        "type": "LineString",
        "coordinates": [
          [
            -1.1023,
            43.5436
          ],
          [
            -1.10265,
            43.54356
          ],
          [
            -1.10305,
            43.54361
          ],
          [
            -1.10336,
            43.54368
          ],
          [
            -1.10368,
            43.54373
          ],
          [
            -1.10399,
            43.54374
          ],
          [
            -1.10435,
            43.54373
          ],
          [
            -1.10456,
            43.54374
          ],
          [
            -1.10474,
            43.54382
          ],
          [
            -1.10508,
            43.54391
          ],
          [
            -1.10538,
            43.54373
          ],
          [
            -1.10547,
            43.54351
          ],
          [
            -1.10558,
            43.5433
          ],
          [
            -1.10568,
            43.54306
          ],
          [
            -1.1058,
            43.54283
          ],
          [
            -1.10599,
            43.54237
          ],
          [
            -1.10632,
            43.54257
          ],
          [
            -1.10685,
            43.54282
          ],
          [
            -1.10705,
            43.54295
          ],
          [
            -1.10729,
            43.54307
          ],
          [
            -1.10779,
            43.54326
          ],
          [
            -1.10806,
            43.54335
          ],
          [
            -1.10889,
            43.54351
          ],
          [
            -1.10967,
            43.54371
          ],
          [
            -1.11018,
            43.54381
          ],
          [
            -1.11088,
            43.54391
          ],
          [
            -1.11147,
            43.54402
          ],
          [
            -1.11176,
            43.54405
          ],
          [
            -1.11239,
            43.54406
          ],
          [
            -1.11352,
            43.54391
          ],
          [
            -1.11461,
            43.54364
          ],
          [
            -1.11536,
            43.54338
          ],
          [
            -1.11604,
            43.54302
          ],
          [
            -1.1165,
            43.54274
          ],
          [
            -1.11668,
            43.54259
          ],
          [
            -1.11674,
            43.54248
          ],
          [
            -1.11673,
            43.54239
          ],
          [
            -1.11665,
            43.5422
          ],
          [
            -1.11661,
            43.542
          ],
          [
            -1.11663,
            43.54191
          ],
          [
            -1.1169,
            43.54168
          ],
          [
            -1.11706,
            43.54151
          ],
          [
            -1.11719,
            43.54133
          ],
          [
            -1.11737,
            43.54131
          ],
          [
            -1.1176,
            43.54105
          ],
          [
            -1.11776,
            43.54092
          ],
          [
            -1.11803,
            43.54082
          ],
          [
            -1.11824,
            43.54072
          ],
          [
            -1.11917,
            43.54019
          ],
          [
            -1.12011,
            43.5398
          ],
          [
            -1.12083,
            43.53958
          ],
          [
            -1.1214,
            43.53949
          ],
          [
            -1.12168,
            43.53946
          ],
          [
            -1.12223,
            43.53947
          ],
          [
            -1.12279,
            43.53951
          ],
          [
            -1.12358,
            43.53967
          ],
          [
            -1.12382,
            43.53974
          ],
          [
            -1.1241,
            43.5398
          ],
          [
            -1.12459,
            43.53994
          ],
          [
            -1.12507,
            43.5401
          ],
          [
            -1.12533,
            43.54013
          ],
          [
            -1.12557,
            43.54024
          ],
          [
            -1.12585,
            43.54033
          ],
          [
            -1.12669,
            43.54057
          ],
          [
            -1.12787,
            43.54078
          ],
          [
            -1.1281,
            43.54084
          ],
          [
            -1.12833,
            43.54095
          ],
          [
            -1.12865,
            43.54103
          ],
          [
            -1.12891,
            43.54111
          ],
          [
            -1.12997,
            43.54137
          ],
          [
            -1.13021,
            43.54145
          ],
          [
            -1.1308,
            43.54148
          ],
          [
            -1.13112,
            43.54146
          ],
          [
            -1.1317,
            43.54146
          ],
          [
            -1.13284,
            43.54153
          ],
          [
            -1.13339,
            43.54149
          ],
          [
            -1.13392,
            43.54149
          ],
          [
            -1.13451,
            43.54145
          ],
          [
            -1.13558,
            43.54145
          ],
          [
            -1.13584,
            43.54147
          ],
          [
            -1.13614,
            43.54154
          ],
          [
            -1.13643,
            43.54158
          ],
          [
            -1.13673,
            43.54167
          ],
          [
            -1.13702,
            43.54172
          ],
          [
            -1.13753,
            43.54175
          ],
          [
            -1.13951,
            43.54164
          ],
          [
            -1.14035,
            43.54152
          ],
          [
            -1.14113,
            43.54132
          ],
          [
            -1.14135,
            43.54122
          ],
          [
            -1.14153,
            43.54106
          ],
          [
            -1.14168,
            43.5409
          ],
          [
            -1.14181,
            43.54073
          ],
          [
            -1.1419,
            43.54055
          ],
          [
            -1.14214,
            43.53996
          ],
          [
            -1.14237,
            43.53988
          ],
          [
            -1.14274,
            43.5392
          ],
          [
            -1.14287,
            43.53902
          ],
          [
            -1.14302,
            43.53876
          ],
          [
            -1.14318,
            43.53843
          ],
          [
            -1.14324,
            43.53822
          ],
          [
            -1.14343,
            43.53804
          ],
          [
            -1.14381,
            43.53777
          ],
          [
            -1.14426,
            43.53729
          ],
          [
            -1.14464,
            43.53704
          ],
          [
            -1.14484,
            43.53692
          ],
          [
            -1.14553,
            43.53664
          ],
          [
            -1.14647,
            43.53631
          ],
          [
            -1.14702,
            43.53603
          ],
          [
            -1.14727,
            43.53599
          ],
          [
            -1.1476,
            43.536
          ],
          [
            -1.14811,
            43.53609
          ],
          [
            -1.14837,
            43.53606
          ],
          [
            -1.1496,
            43.53581
          ],
          [
            -1.15031,
            43.53574
          ],
          [
            -1.15102,
            43.53573
          ],
          [
            -1.15362,
            43.53591
          ],
          [
            -1.15424,
            43.53606
          ],
          [
            -1.1551,
            43.53625
          ],
          [
            -1.15538,
            43.53629
          ],
          [
            -1.15652,
            43.53655
          ],
          [
            -1.15757,
            43.53688
          ],
          [
            -1.15847,
            43.53713
          ],
          [
            -1.1589,
            43.53726
          ],
          [
            -1.15891,
            43.53753
          ],
          [
            -1.15897,
            43.53759
          ],
          [
            -1.15924,
            43.5377
          ],
          [
            -1.15949,
            43.53783
          ],
          [
            -1.15976,
            43.53802
          ],
          [
            -1.1601,
            43.5383
          ],
          [
            -1.16034,
            43.53846
          ],
          [
            -1.16052,
            43.53863
          ],
          [
            -1.16089,
            43.53893
          ],
          [
            -1.1611,
            43.53908
          ],
          [
            -1.16144,
            43.53942
          ],
          [
            -1.1617,
            43.53976
          ],
          [
            -1.16184,
            43.5399
          ],
          [
            -1.16277,
            43.54059
          ],
          [
            -1.16382,
            43.54118
          ],
          [
            -1.16424,
            43.54145
          ],
          [
            -1.1646,
            43.54172
          ],
          [
            -1.16541,
            43.54221
          ],
          [
            -1.16607,
            43.54263
          ],
          [
            -1.16666,
            43.54308
          ],
          [
            -1.16769,
            43.54368
          ],
          [
            -1.16791,
            43.54379
          ],
          [
            -1.16815,
            43.54388
          ],
          [
            -1.16837,
            43.54398
          ],
          [
            -1.16902,
            43.54432
          ],
          [
            -1.16928,
            43.5444
          ],
          [
            -1.1695,
            43.54449
          ],
          [
            -1.16998,
            43.54466
          ],
          [
            -1.17046,
            43.5448
          ],
          [
            -1.17097,
            43.54491
          ],
          [
            -1.17202,
            43.54502
          ],
          [
            -1.17282,
            43.54514
          ],
          [
            -1.17587,
            43.54546
          ],
          [
            -1.17696,
            43.54552
          ],
          [
            -1.17804,
            43.54566
          ],
          [
            -1.17876,
            43.5457
          ],
          [
            -1.17903,
            43.54576
          ],
          [
            -1.18006,
            43.5459
          ],
          [
            -1.1806,
            43.546
          ],
          [
            -1.18115,
            43.54606
          ],
          [
            -1.18147,
            43.54607
          ],
          [
            -1.18236,
            43.54622
          ],
          [
            -1.18342,
            43.54636
          ],
          [
            -1.18371,
            43.54638
          ],
          [
            -1.18424,
            43.54644
          ],
          [
            -1.18531,
            43.54653
          ],
          [
            -1.18586,
            43.5466
          ],
          [
            -1.1864,
            43.54663
          ],
          [
            -1.18692,
            43.54665
          ],
          [
            -1.188,
            43.54666
          ],
          [
            -1.18828,
            43.54668
          ],
          [
            -1.18852,
            43.54662
          ],
          [
            -1.18978,
            43.54651
          ],
          [
            -1.19141,
            43.5462
          ],
          [
            -1.19196,
            43.54613
          ],
          [
            -1.19268,
            43.54601
          ],
          [
            -1.19342,
            43.54583
          ],
          [
            -1.19425,
            43.54555
          ],
          [
            -1.19566,
            43.54486
          ],
          [
            -1.19588,
            43.54477
          ],
          [
            -1.19669,
            43.54426
          ],
          [
            -1.19688,
            43.54409
          ],
          [
            -1.19759,
            43.5435
          ],
          [
            -1.19893,
            43.54226
          ],
          [
            -1.2,
            43.54138
          ],
          [
            -1.20031,
            43.54107
          ],
          [
            -1.20171,
            43.54006
          ],
          [
            -1.20211,
            43.53976
          ],
          [
            -1.2032,
            43.53901
          ],
          [
            -1.20339,
            43.53885
          ],
          [
            -1.20381,
            43.5386
          ],
          [
            -1.20421,
            43.53832
          ],
          [
            -1.20464,
            43.53806
          ],
          [
            -1.20532,
            43.53758
          ],
          [
            -1.20551,
            43.53743
          ],
          [
            -1.20597,
            43.53714
          ],
          [
            -1.2064,
            43.53685
          ],
          [
            -1.20762,
            43.53626
          ],
          [
            -1.20779,
            43.53609
          ],
          [
            -1.20799,
            43.53598
          ],
          [
            -1.2086,
            43.5355
          ],
          [
            -1.20884,
            43.53533
          ],
          [
            -1.2093,
            43.53497
          ],
          [
            -1.20948,
            43.53479
          ],
          [
            -1.20994,
            43.53453
          ],
          [
            -1.2101,
            43.53438
          ],
          [
            -1.21032,
            43.53423
          ],
          [
            -1.21083,
            43.53393
          ],
          [
            -1.21102,
            43.53379
          ],
          [
            -1.21155,
            43.53337
          ],
          [
            -1.21257,
            43.53247
          ],
          [
            -1.21288,
            43.53213
          ],
          [
            -1.21302,
            43.53194
          ],
          [
            -1.21347,
            43.53154
          ],
          [
            -1.21373,
            43.53119
          ],
          [
            -1.21407,
            43.53085
          ],
          [
            -1.21433,
            43.53077
          ],
          [
            -1.21461,
            43.53072
          ],
          [
            -1.21487,
            43.53065
          ],
          [
            -1.21566,
            43.53037
          ],
          [
            -1.21593,
            43.53029
          ],
          [
            -1.21737,
            43.52978
          ],
          [
            -1.21925,
            43.52907
          ],
          [
            -1.22025,
            43.52853
          ],
          [
            -1.22047,
            43.52838
          ],
          [
            -1.22071,
            43.52827
          ],
          [
            -1.22095,
            43.52813
          ],
          [
            -1.22138,
            43.52786
          ],
          [
            -1.2216,
            43.52775
          ],
          [
            -1.22224,
            43.52736
          ],
          [
            -1.22318,
            43.52687
          ],
          [
            -1.22339,
            43.52675
          ],
          [
            -1.22439,
            43.52623
          ],
          [
            -1.22516,
            43.52585
          ],
          [
            -1.22619,
            43.52515
          ],
          [
            -1.22662,
            43.52489
          ],
          [
            -1.22704,
            43.52456
          ],
          [
            -1.22747,
            43.52429
          ],
          [
            -1.22771,
            43.52417
          ],
          [
            -1.22811,
            43.52392
          ],
          [
            -1.22852,
            43.52362
          ],
          [
            -1.22977,
            43.52291
          ],
          [
            -1.2301,
            43.52274
          ],
          [
            -1.23079,
            43.52249
          ],
          [
            -1.232,
            43.52199
          ],
          [
            -1.23336,
            43.52136
          ],
          [
            -1.23455,
            43.5207
          ],
          [
            -1.23525,
            43.52036
          ],
          [
            -1.23594,
            43.51997
          ],
          [
            -1.23689,
            43.51953
          ],
          [
            -1.2371,
            43.51941
          ],
          [
            -1.23783,
            43.51908
          ],
          [
            -1.23835,
            43.5189
          ],
          [
            -1.23884,
            43.51875
          ],
          [
            -1.23909,
            43.51864
          ],
          [
            -1.23986,
            43.51834
          ],
          [
            -1.24067,
            43.51819
          ],
          [
            -1.24143,
            43.51798
          ],
          [
            -1.24194,
            43.51787
          ],
          [
            -1.24219,
            43.51778
          ],
          [
            -1.2446,
            43.51728
          ],
          [
            -1.24536,
            43.51708
          ],
          [
            -1.2456,
            43.517
          ],
          [
            -1.24623,
            43.51664
          ],
          [
            -1.24644,
            43.51653
          ],
          [
            -1.2469,
            43.51633
          ],
          [
            -1.24787,
            43.51596
          ],
          [
            -1.24839,
            43.51584
          ],
          [
            -1.24866,
            43.51576
          ],
          [
            -1.24891,
            43.51567
          ],
          [
            -1.2501,
            43.51515
          ],
          [
            -1.25039,
            43.51501
          ],
          [
            -1.25088,
            43.51481
          ],
          [
            -1.25134,
            43.51459
          ],
          [
            -1.25159,
            43.51452
          ],
          [
            -1.25205,
            43.51433
          ],
          [
            -1.25277,
            43.51407
          ],
          [
            -1.25304,
            43.51399
          ],
          [
            -1.25387,
            43.51369
          ],
          [
            -1.25442,
            43.51352
          ],
          [
            -1.25467,
            43.51341
          ],
          [
            -1.25539,
            43.51316
          ],
          [
            -1.25608,
            43.51287
          ],
          [
            -1.25858,
            43.51214
          ],
          [
            -1.25883,
            43.51208
          ],
          [
            -1.25908,
            43.51198
          ],
          [
            -1.25929,
            43.51186
          ],
          [
            -1.25954,
            43.51177
          ],
          [
            -1.26027,
            43.51139
          ],
          [
            -1.26076,
            43.51115
          ],
          [
            -1.26102,
            43.51105
          ],
          [
            -1.26181,
            43.51082
          ],
          [
            -1.26332,
            43.51048
          ],
          [
            -1.26407,
            43.51023
          ],
          [
            -1.26503,
            43.50988
          ],
          [
            -1.26528,
            43.50982
          ],
          [
            -1.26553,
            43.50973
          ],
          [
            -1.26624,
            43.50938
          ],
          [
            -1.2669,
            43.509
          ],
          [
            -1.26811,
            43.50823
          ],
          [
            -1.26872,
            43.50788
          ],
          [
            -1.26913,
            43.50762
          ],
          [
            -1.27012,
            43.50699
          ],
          [
            -1.2703,
            43.50685
          ],
          [
            -1.27228,
            43.50566
          ],
          [
            -1.27248,
            43.50551
          ],
          [
            -1.27557,
            43.50372
          ],
          [
            -1.27651,
            43.50325
          ],
          [
            -1.27716,
            43.50288
          ],
          [
            -1.27859,
            43.5021
          ],
          [
            -1.27934,
            43.50173
          ],
          [
            -1.2796,
            43.50162
          ],
          [
            -1.28029,
            43.50125
          ],
          [
            -1.28074,
            43.501
          ],
          [
            -1.28124,
            43.50066
          ],
          [
            -1.28169,
            43.5004
          ],
          [
            -1.28377,
            43.49928
          ],
          [
            -1.28557,
            43.49846
          ],
          [
            -1.28642,
            43.49803
          ],
          [
            -1.28688,
            43.49784
          ],
          [
            -1.28765,
            43.49762
          ],
          [
            -1.28872,
            43.49735
          ],
          [
            -1.28924,
            43.49725
          ],
          [
            -1.29042,
            43.49706
          ],
          [
            -1.29082,
            43.49703
          ],
          [
            -1.29164,
            43.49706
          ],
          [
            -1.29202,
            43.49709
          ],
          [
            -1.29268,
            43.49709
          ],
          [
            -1.29329,
            43.49716
          ],
          [
            -1.29379,
            43.49718
          ],
          [
            -1.29404,
            43.49729
          ],
          [
            -1.29475,
            43.49779
          ],
          [
            -1.29562,
            43.49834
          ],
          [
            -1.29745,
            43.49968
          ],
          [
            -1.29789,
            43.49996
          ],
          [
            -1.29857,
            43.50033
          ],
          [
            -1.29936,
            43.50068
          ],
          [
            -1.29988,
            43.5008
          ],
          [
            -1.30205,
            43.50101
          ],
          [
            -1.30286,
            43.50104
          ],
          [
            -1.30426,
            43.50116
          ],
          [
            -1.30483,
            43.50117
          ],
          [
            -1.30649,
            43.50117
          ],
          [
            -1.30705,
            43.50119
          ],
          [
            -1.30763,
            43.50112
          ],
          [
            -1.30793,
            43.5011
          ],
          [
            -1.30822,
            43.50106
          ],
          [
            -1.30875,
            43.50104
          ],
          [
            -1.30904,
            43.50105
          ],
          [
            -1.30934,
            43.50108
          ],
          [
            -1.31054,
            43.50109
          ],
          [
            -1.31071,
            43.50102
          ],
          [
            -1.31062,
            43.50057
          ],
          [
            -1.31065,
            43.50046
          ],
          [
            -1.31075,
            43.50042
          ],
          [
            -1.31136,
            43.50035
          ],
          [
            -1.31191,
            43.50035
          ],
          [
            -1.31271,
            43.50029
          ],
          [
            -1.31472,
            43.50022
          ],
          [
            -1.31507,
            43.50024
          ],
          [
            -1.31554,
            43.50036
          ],
          [
            -1.31579,
            43.5003
          ],
          [
            -1.31621,
            43.50003
          ],
          [
            -1.31647,
            43.4999
          ],
          [
            -1.3168,
            43.49966
          ],
          [
            -1.31701,
            43.49948
          ],
          [
            -1.31719,
            43.49929
          ],
          [
            -1.31739,
            43.49914
          ],
          [
            -1.31764,
            43.49904
          ],
          [
            -1.31786,
            43.49891
          ],
          [
            -1.3181,
            43.4988
          ],
          [
            -1.31861,
            43.49859
          ],
          [
            -1.31882,
            43.49845
          ],
          [
            -1.3191,
            43.49836
          ],
          [
            -1.31936,
            43.49832
          ],
          [
            -1.31966,
            43.49829
          ],
          [
            -1.32041,
            43.49816
          ],
          [
            -1.32097,
            43.49812
          ],
          [
            -1.32202,
            43.4981
          ],
          [
            -1.32318,
            43.49805
          ],
          [
            -1.32377,
            43.498
          ],
          [
            -1.32409,
            43.49793
          ],
          [
            -1.32443,
            43.49789
          ],
          [
            -1.32474,
            43.49814
          ],
          [
            -1.32532,
            43.4982
          ],
          [
            -1.32601,
            43.49816
          ],
          [
            -1.32693,
            43.49814
          ],
          [
            -1.32751,
            43.49818
          ],
          [
            -1.32823,
            43.49816
          ],
          [
            -1.32924,
            43.49806
          ],
          [
            -1.32971,
            43.49802
          ],
          [
            -1.33054,
            43.4979
          ],
          [
            -1.33092,
            43.49783
          ],
          [
            -1.33155,
            43.49776
          ],
          [
            -1.33287,
            43.49757
          ],
          [
            -1.33326,
            43.49758
          ],
          [
            -1.33417,
            43.49747
          ],
          [
            -1.33504,
            43.49744
          ],
          [
            -1.33589,
            43.49753
          ],
          [
            -1.33713,
            43.49755
          ],
          [
            -1.33873,
            43.49763
          ],
          [
            -1.33928,
            43.49768
          ],
          [
            -1.33988,
            43.49775
          ],
          [
            -1.34048,
            43.49779
          ],
          [
            -1.34181,
            43.49803
          ],
          [
            -1.34239,
            43.49809
          ],
          [
            -1.34328,
            43.49808
          ],
          [
            -1.34356,
            43.49812
          ],
          [
            -1.34386,
            43.49811
          ],
          [
            -1.34473,
            43.49804
          ],
          [
            -1.3453,
            43.49803
          ],
          [
            -1.34645,
            43.4981
          ],
          [
            -1.34794,
            43.49812
          ],
          [
            -1.34849,
            43.49809
          ],
          [
            -1.34878,
            43.49801
          ],
          [
            -1.34899,
            43.49791
          ],
          [
            -1.34925,
            43.49792
          ],
          [
            -1.3495,
            43.49786
          ],
          [
            -1.34969,
            43.49772
          ],
          [
            -1.3499,
            43.49761
          ],
          [
            -1.35015,
            43.49741
          ],
          [
            -1.35099,
            43.4969
          ],
          [
            -1.35236,
            43.49625
          ],
          [
            -1.35358,
            43.49582
          ],
          [
            -1.35434,
            43.49559
          ],
          [
            -1.35485,
            43.49541
          ],
          [
            -1.35536,
            43.49529
          ],
          [
            -1.35592,
            43.49526
          ],
          [
            -1.35804,
            43.49547
          ],
          [
            -1.35839,
            43.49549
          ],
          [
            -1.35884,
            43.49546
          ],
          [
            -1.35943,
            43.49539
          ],
          [
            -1.35968,
            43.49534
          ],
          [
            -1.35992,
            43.49524
          ],
          [
            -1.36174,
            43.49443
          ],
          [
            -1.36222,
            43.49425
          ],
          [
            -1.36296,
            43.494
          ],
          [
            -1.36345,
            43.49386
          ],
          [
            -1.36452,
            43.49362
          ],
          [
            -1.36481,
            43.49354
          ],
          [
            -1.36497,
            43.4934
          ],
          [
            -1.36514,
            43.49328
          ],
          [
            -1.36543,
            43.49317
          ],
          [
            -1.36678,
            43.49282
          ],
          [
            -1.36756,
            43.49267
          ],
          [
            -1.3677,
            43.49273
          ],
          [
            -1.36775,
            43.49296
          ],
          [
            -1.36786,
            43.49332
          ],
          [
            -1.36791,
            43.49335
          ],
          [
            -1.36858,
            43.4933
          ],
          [
            -1.3691,
            43.4933
          ],
          [
            -1.36937,
            43.49332
          ],
          [
            -1.3696,
            43.4934
          ],
          [
            -1.36987,
            43.49347
          ],
          [
            -1.37028,
            43.49353
          ],
          [
            -1.37108,
            43.49369
          ],
          [
            -1.37136,
            43.49372
          ],
          [
            -1.37194,
            43.49383
          ],
          [
            -1.37221,
            43.49385
          ],
          [
            -1.37358,
            43.49379
          ],
          [
            -1.3744,
            43.49369
          ],
          [
            -1.37519,
            43.49368
          ],
          [
            -1.37548,
            43.49365
          ],
          [
            -1.37548,
            43.49342
          ],
          [
            -1.37558,
            43.49266
          ],
          [
            -1.37558,
            43.49246
          ],
          [
            -1.37561,
            43.49226
          ],
          [
            -1.37567,
            43.49207
          ],
          [
            -1.37606,
            43.49202
          ],
          [
            -1.37622,
            43.49197
          ],
          [
            -1.37635,
            43.49181
          ],
          [
            -1.37644,
            43.49179
          ],
          [
            -1.37655,
            43.49198
          ],
          [
            -1.3766,
            43.49204
          ],
          [
            -1.377,
            43.49212
          ],
          [
            -1.37724,
            43.49219
          ],
          [
            -1.37746,
            43.49229
          ],
          [
            -1.37786,
            43.49252
          ],
          [
            -1.378,
            43.49268
          ],
          [
            -1.37809,
            43.49286
          ],
          [
            -1.37812,
            43.49305
          ],
          [
            -1.37812,
            43.49325
          ],
          [
            -1.37832,
            43.4933
          ],
          [
            -1.37978,
            43.4933
          ],
          [
            -1.38038,
            43.49334
          ],
          [
            -1.38064,
            43.49337
          ],
          [
            -1.38222,
            43.49362
          ],
          [
            -1.38357,
            43.49368
          ],
          [
            -1.38398,
            43.49381
          ],
          [
            -1.38505,
            43.49385
          ],
          [
            -1.3853,
            43.49378
          ],
          [
            -1.38556,
            43.49377
          ],
          [
            -1.38609,
            43.49381
          ],
          [
            -1.38662,
            43.49381
          ],
          [
            -1.38814,
            43.49389
          ],
          [
            -1.38866,
            43.49384
          ],
          [
            -1.38917,
            43.49376
          ],
          [
            -1.38945,
            43.49373
          ],
          [
            -1.39074,
            43.49353
          ],
          [
            -1.39137,
            43.49347
          ],
          [
            -1.39166,
            43.49318
          ],
          [
            -1.39191,
            43.49288
          ],
          [
            -1.39292,
            43.49329
          ],
          [
            -1.39309,
            43.49339
          ],
          [
            -1.39455,
            43.49395
          ],
          [
            -1.39479,
            43.49406
          ],
          [
            -1.39524,
            43.49422
          ],
          [
            -1.39576,
            43.49443
          ],
          [
            -1.39595,
            43.49443
          ],
          [
            -1.39597,
            43.49435
          ],
          [
            -1.39568,
            43.49359
          ],
          [
            -1.39566,
            43.49345
          ],
          [
            -1.3956,
            43.49337
          ],
          [
            -1.39526,
            43.49244
          ],
          [
            -1.39499,
            43.49187
          ],
          [
            -1.39481,
            43.49159
          ],
          [
            -1.39475,
            43.49145
          ],
          [
            -1.39475,
            43.4913
          ],
          [
            -1.39479,
            43.49115
          ],
          [
            -1.39485,
            43.49104
          ],
          [
            -1.39491,
            43.49098
          ],
          [
            -1.39571,
            43.49074
          ],
          [
            -1.39612,
            43.4906
          ],
          [
            -1.39727,
            43.49014
          ],
          [
            -1.39757,
            43.48999
          ],
          [
            -1.39784,
            43.48988
          ],
          [
            -1.39798,
            43.48992
          ],
          [
            -1.39813,
            43.49
          ],
          [
            -1.39833,
            43.4902
          ],
          [
            -1.39861,
            43.49041
          ],
          [
            -1.3991,
            43.49087
          ],
          [
            -1.39981,
            43.49147
          ],
          [
            -1.39996,
            43.49148
          ],
          [
            -1.4004,
            43.49138
          ],
          [
            -1.40053,
            43.49137
          ],
          [
            -1.40058,
            43.49146
          ],
          [
            -1.40066,
            43.49211
          ],
          [
            -1.40075,
            43.49244
          ],
          [
            -1.40087,
            43.4926
          ],
          [
            -1.40104,
            43.49271
          ],
          [
            -1.40169,
            43.49288
          ],
          [
            -1.40202,
            43.49285
          ],
          [
            -1.40237,
            43.49271
          ],
          [
            -1.40278,
            43.49252
          ],
          [
            -1.40295,
            43.49258
          ],
          [
            -1.40389,
            43.49245
          ],
          [
            -1.40431,
            43.49232
          ],
          [
            -1.40475,
            43.49228
          ],
          [
            -1.40489,
            43.49229
          ],
          [
            -1.40496,
            43.49241
          ],
          [
            -1.40492,
            43.49275
          ],
          [
            -1.40504,
            43.49285
          ],
          [
            -1.40511,
            43.49306
          ],
          [
            -1.40525,
            43.49319
          ],
          [
            -1.4056,
            43.49335
          ],
          [
            -1.40586,
            43.4933
          ],
          [
            -1.40664,
            43.49296
          ],
          [
            -1.40693,
            43.4929
          ],
          [
            -1.40735,
            43.49314
          ],
          [
            -1.40751,
            43.4933
          ],
          [
            -1.40771,
            43.49388
          ],
          [
            -1.40781,
            43.49405
          ],
          [
            -1.40824,
            43.49421
          ],
          [
            -1.40829,
            43.49417
          ],
          [
            -1.40847,
            43.49396
          ],
          [
            -1.40946,
            43.49342
          ],
          [
            -1.41084,
            43.49251
          ],
          [
            -1.41103,
            43.49237
          ],
          [
            -1.41128,
            43.49228
          ],
          [
            -1.41155,
            43.49215
          ],
          [
            -1.41206,
            43.49199
          ],
          [
            -1.41216,
            43.49194
          ],
          [
            -1.41233,
            43.49196
          ],
          [
            -1.41289,
            43.49207
          ],
          [
            -1.41315,
            43.49209
          ],
          [
            -1.41341,
            43.49209
          ],
          [
            -1.41395,
            43.49201
          ],
          [
            -1.41527,
            43.49189
          ],
          [
            -1.41578,
            43.49181
          ],
          [
            -1.41632,
            43.49176
          ],
          [
            -1.41704,
            43.49157
          ],
          [
            -1.4173,
            43.49153
          ],
          [
            -1.41761,
            43.4915
          ],
          [
            -1.41785,
            43.49145
          ],
          [
            -1.41858,
            43.49119
          ],
          [
            -1.41881,
            43.49113
          ],
          [
            -1.41906,
            43.49109
          ],
          [
            -1.41933,
            43.49121
          ],
          [
            -1.41974,
            43.49143
          ],
          [
            -1.42016,
            43.49162
          ],
          [
            -1.42089,
            43.49181
          ],
          [
            -1.42216,
            43.49211
          ],
          [
            -1.42241,
            43.49215
          ],
          [
            -1.42396,
            43.49254
          ],
          [
            -1.42414,
            43.49242
          ],
          [
            -1.42427,
            43.49227
          ],
          [
            -1.42441,
            43.4919
          ],
          [
            -1.42447,
            43.49164
          ],
          [
            -1.42454,
            43.49145
          ],
          [
            -1.42459,
            43.4912
          ],
          [
            -1.42454,
            43.49107
          ],
          [
            -1.42459,
            43.49101
          ],
          [
            -1.42464,
            43.49089
          ],
          [
            -1.42467,
            43.49062
          ],
          [
            -1.42467,
            43.49035
          ],
          [
            -1.42466,
            43.49015
          ],
          [
            -1.42468,
            43.48996
          ],
          [
            -1.42475,
            43.48987
          ],
          [
            -1.42489,
            43.48983
          ],
          [
            -1.42511,
            43.4898
          ],
          [
            -1.42598,
            43.4898
          ],
          [
            -1.42682,
            43.48982
          ],
          [
            -1.42758,
            43.48978
          ],
          [
            -1.42811,
            43.48972
          ],
          [
            -1.42838,
            43.48967
          ],
          [
            -1.43062,
            43.48913
          ],
          [
            -1.43107,
            43.48899
          ],
          [
            -1.43128,
            43.48895
          ],
          [
            -1.43195,
            43.48876
          ],
          [
            -1.43208,
            43.48899
          ],
          [
            -1.43227,
            43.48911
          ],
          [
            -1.43252,
            43.48916
          ],
          [
            -1.43263,
            43.48915
          ],
          [
            -1.433,
            43.48901
          ],
          [
            -1.43314,
            43.48893
          ],
          [
            -1.43325,
            43.48884
          ],
          [
            -1.43361,
            43.48864
          ],
          [
            -1.4354,
            43.48782
          ],
          [
            -1.43564,
            43.48772
          ],
          [
            -1.43615,
            43.48758
          ],
          [
            -1.43663,
            43.48743
          ],
          [
            -1.43684,
            43.48731
          ],
          [
            -1.43751,
            43.487
          ],
          [
            -1.43816,
            43.48664
          ],
          [
            -1.43838,
            43.48654
          ],
          [
            -1.43881,
            43.48635
          ],
          [
            -1.43929,
            43.48618
          ],
          [
            -1.43995,
            43.48589
          ],
          [
            -1.44066,
            43.48563
          ],
          [
            -1.44087,
            43.48552
          ],
          [
            -1.44127,
            43.48527
          ],
          [
            -1.4415,
            43.48516
          ],
          [
            -1.44178,
            43.48507
          ],
          [
            -1.44245,
            43.48478
          ],
          [
            -1.44295,
            43.48462
          ],
          [
            -1.44319,
            43.48452
          ],
          [
            -1.4437,
            43.48434
          ],
          [
            -1.44422,
            43.48425
          ],
          [
            -1.44557,
            43.48426
          ],
          [
            -1.44584,
            43.48428
          ],
          [
            -1.44667,
            43.4843
          ],
          [
            -1.44697,
            43.48428
          ],
          [
            -1.4475,
            43.4843
          ],
          [
            -1.44784,
            43.48425
          ],
          [
            -1.44819,
            43.48429
          ],
          [
            -1.44876,
            43.48429
          ],
          [
            -1.4493,
            43.48423
          ],
          [
            -1.45009,
            43.4842
          ],
          [
            -1.45089,
            43.48409
          ],
          [
            -1.45193,
            43.48391
          ],
          [
            -1.45301,
            43.48369
          ],
          [
            -1.45378,
            43.48356
          ],
          [
            -1.45403,
            43.48356
          ],
          [
            -1.45484,
            43.48362
          ],
          [
            -1.45568,
            43.48375
          ],
          [
            -1.45624,
            43.48387
          ],
          [
            -1.4565,
            43.48397
          ],
          [
            -1.45698,
            43.48424
          ],
          [
            -1.45724,
            43.48437
          ],
          [
            -1.45751,
            43.48448
          ],
          [
            -1.45806,
            43.48463
          ],
          [
            -1.45858,
            43.48482
          ],
          [
            -1.45881,
            43.48493
          ],
          [
            -1.45925,
            43.48518
          ],
          [
            -1.4595,
            43.48529
          ],
          [
            -1.45981,
            43.4854
          ],
          [
            -1.46038,
            43.48554
          ],
          [
            -1.4606,
            43.48569
          ],
          [
            -1.46096,
            43.48598
          ],
          [
            -1.46138,
            43.48625
          ],
          [
            -1.46204,
            43.48658
          ],
          [
            -1.46224,
            43.4867
          ],
          [
            -1.46294,
            43.48719
          ],
          [
            -1.46352,
            43.48765
          ],
          [
            -1.46377,
            43.48776
          ],
          [
            -1.46396,
            43.48791
          ],
          [
            -1.46419,
            43.48797
          ],
          [
            -1.4653,
            43.48848
          ],
          [
            -1.46601,
            43.48897
          ],
          [
            -1.46617,
            43.48905
          ],
          [
            -1.46639,
            43.4892
          ],
          [
            -1.46656,
            43.48933
          ],
          [
            -1.46677,
            43.48953
          ],
          [
            -1.46773,
            43.49079
          ],
          [
            -1.46839,
            43.49115
          ],
          [
            -1.46953,
            43.49168
          ],
          [
            -1.47003,
            43.49195
          ],
          [
            -1.47086,
            43.49234
          ],
          [
            -1.47128,
            43.49253
          ],
          [
            -1.47159,
            43.49264
          ],
          [
            -1.47216,
            43.49289
          ],
          [
            -1.47251,
            43.49302
          ],
          [
            -1.47279,
            43.49298
          ],
          [
            -1.47308,
            43.4927
          ],
          [
            -1.47353,
            43.49243
          ],
          [
            -1.47377,
            43.49232
          ],
          [
            -1.47379,
            43.49187
          ],
          [
            -1.47389,
            43.49116
          ],
          [
            -1.47399,
            43.49099
          ],
          [
            -1.47436,
            43.49101
          ],
          [
            -1.47544,
            43.49095
          ],
          [
            -1.47643,
            43.49093
          ],
          [
            -1.47659,
            43.49089
          ],
          [
            -1.47674,
            43.49073
          ],
          [
            -1.47694,
            43.49073
          ],
          [
            -1.4773,
            43.49053
          ]
        ]
      }
    }
  ]
}