{"type":"FeatureCollection","features":[{"type":"Feature","properties":{"Name":"Etapa 1 — Rionegro del Puente–Muelas de los Caballeros","etapa":1,"original_name":"ETAPA 1 - CAMINO DE SANTIAGO DE LOS FALIFOS - Rionegro del Puente - Muelas de los Caballeros - Wikiloc","point_count":401,"length_km":20.327},"geometry":{"type":"LineString","coordinates":[[-6.229425,42.006944,804.045],[-6.229441,42.007032,804.047],[-6.229522,42.00705,804.311],[-6.229707,42.007124,805.009],[-6.229857,42.007192,805.565],[-6.230434,42.007417,808.137],[-6.230865,42.007688,810.556],[-6.231362,42.007937,814.551],[-6.231879,42.008051,817.055],[-6.232976,42.008355,820.322],[-6.233188,42.008449,820.059],[-6.233336,42.008555,820.011],[-6.23365,42.008712,821.154],[-6.233674,42.00892,821.222],[-6.233561,42.009091,820.862],[-6.233427,42.009262,820.708],[-6.233416,42.009529,821.309],[-6.233642,42.009685,822.183],[-6.233802,42.009896,822.745],[-6.233588,42.010677,824.434],[-6.233953,42.010689,825.029],[-6.236029,42.010841,823.383],[-6.237515,42.010893,822.57],[-6.239902,42.010833,824.067],[-6.240932,42.010725,824.269],[-6.241758,42.010641,826.532],[-6.2423,42.010633,826.396],[-6.24274,42.010693,828.231],[-6.242906,42.010705,829.424],[-6.243458,42.011618,837.009],[-6.243829,42.011913,841.24],[-6.244494,42.012427,846.192],[-6.245143,42.012969,845.241],[-6.245572,42.013248,843.476],[-6.246017,42.013527,839.16],[-6.246446,42.013738,836.957],[-6.247637,42.014516,842.454],[-6.248125,42.014779,841.646],[-6.24864,42.015125,840.639],[-6.248909,42.015404,842.187],[-6.249306,42.015715,840.742],[-6.249558,42.015859,839.926],[-6.250003,42.01601,840.809],[-6.250239,42.016205,842.119],[-6.250743,42.016413,843.851],[-6.25107,42.016472,845.51],[-6.25136,42.01652,847.185],[-6.251736,42.016564,848.559],[-6.252122,42.016744,849.216],[-6.252508,42.016732,850.043],[-6.253168,42.016943,848.395],[-6.253372,42.017019,847.478],[-6.253667,42.017062,847.432],[-6.253898,42.017158,847.292],[-6.254091,42.017297,846.511],[-6.254665,42.017899,846.109],[-6.255233,42.018461,842.514],[-6.255512,42.018617,840.016],[-6.256049,42.019051,836.795],[-6.256435,42.019398,834.82],[-6.257036,42.01978,832.624],[-6.257266,42.019992,831.731],[-6.257626,42.020406,829.798],[-6.257835,42.020649,827.81],[-6.258811,42.021099,822.893],[-6.259332,42.021363,821.221],[-6.259981,42.021693,820.341],[-6.260442,42.021936,819.405],[-6.260614,42.022092,819.909],[-6.260866,42.02251,820.743],[-6.261418,42.022789,821.855],[-6.261671,42.022933,822.854],[-6.262175,42.023275,824.319],[-6.262593,42.02359,824.693],[-6.263044,42.024029,825.62],[-6.263409,42.024519,829.287],[-6.263693,42.024853,829.969],[-6.263859,42.024989,830.572],[-6.264326,42.025368,833.234],[-6.264514,42.025483,834.655],[-6.264707,42.025794,836.41],[-6.264782,42.026025,837.209],[-6.264701,42.026188,837.664],[-6.26475,42.0264,837.376],[-6.264857,42.026551,834.265],[-6.26505,42.026667,831.66],[-6.2652,42.026782,830.174],[-6.265281,42.026981,828.561],[-6.265345,42.027165,827.998],[-6.265646,42.027515,825.57],[-6.265774,42.027559,825.233],[-6.265898,42.027547,825.612],[-6.266021,42.027543,826.132],[-6.266375,42.02795,826.305],[-6.266708,42.028344,824.009],[-6.266748,42.028448,823.682],[-6.266708,42.028529,822.614],[-6.26678,42.028585,822.723],[-6.266893,42.028619,823.318],[-6.266946,42.028719,823.312],[-6.267043,42.028914,822.849],[-6.267129,42.029173,820.616],[-6.267118,42.029283,819.898],[-6.267612,42.029504,818.071],[-6.267832,42.029605,818.932],[-6.268011,42.029661,819.692],[-6.267748,42.030042,817.011],[-6.267486,42.030293,813.509],[-6.267244,42.030374,812.394],[-6.266893,42.030613,811.736],[-6.266839,42.030757,811.445],[-6.266619,42.030982,810.36],[-6.26644,42.03112,808.964],[-6.266236,42.031157,807.531],[-6.265978,42.031173,806.368],[-6.265756,42.031229,805.99],[-6.265654,42.031297,805.833],[-6.265399,42.031494,805.458],[-6.26519,42.031711,806.052],[-6.264916,42.031887,806.917],[-6.264567,42.032305,808.309],[-6.26461,42.032564,807.416],[-6.26482,42.032946,807.038],[-6.264862,42.033401,807.997],[-6.265061,42.033672,808.472],[-6.265254,42.033791,808.026],[-6.265404,42.034006,806.893],[-6.265426,42.034186,805.61],[-6.265715,42.034365,806.212],[-6.265941,42.034851,806.685],[-6.265989,42.03511,806.266],[-6.266263,42.035385,808.029],[-6.266461,42.035787,810.521],[-6.266729,42.036325,808.709],[-6.265007,42.03654,819.747],[-6.264224,42.0367,819.869],[-6.264278,42.037285,820.328],[-6.264052,42.037477,822.913],[-6.264031,42.037963,825.227],[-6.264042,42.038736,827.634],[-6.263859,42.039126,827.971],[-6.263795,42.039668,829.033],[-6.263591,42.040799,824.956],[-6.263494,42.041301,822.455],[-6.263216,42.041596,823.107],[-6.263226,42.042273,823.317],[-6.263194,42.042863,826.009],[-6.263226,42.043309,823.266],[-6.263752,42.043779,820.048],[-6.264009,42.04409,818.867],[-6.263784,42.044186,818.722],[-6.263913,42.044512,820.126],[-6.264192,42.044895,819.363],[-6.264396,42.045285,817.96],[-6.264793,42.045787,820.792],[-6.264986,42.045923,820.475],[-6.265275,42.04605,820.268],[-6.265393,42.046185,819.942],[-6.265554,42.046496,821.226],[-6.266509,42.046982,822.509],[-6.266788,42.047221,825.727],[-6.267389,42.047787,833.859],[-6.267657,42.04793,835.928],[-6.267883,42.048074,837.023],[-6.267883,42.048368,838.397],[-6.267915,42.048291,838.024],[-6.26792,42.04842,838.281],[-6.26803,42.04857,837.853],[-6.268011,42.048839,838.666],[-6.267931,42.04901,838.939],[-6.267904,42.049233,839.601],[-6.267853,42.049378,840.721],[-6.26773,42.049474,842.109],[-6.26763,42.049569,843.244],[-6.267335,42.049707,844.726],[-6.267132,42.049962,844.525],[-6.266466,42.050591,852.11],[-6.266437,42.050697,852.284],[-6.266389,42.050798,852.741],[-6.265954,42.051559,850.648],[-6.265841,42.051912,850.68],[-6.265785,42.052193,851.473],[-6.265731,42.052326,853.039],[-6.265782,42.052443,853.501],[-6.265804,42.05286,855.921],[-6.265823,42.053041,855.809],[-6.265788,42.05318,856.314],[-6.265922,42.053399,855.186],[-6.265978,42.053654,856.235],[-6.266016,42.053999,855.07],[-6.266048,42.054318,855.024],[-6.266048,42.054405,856.141],[-6.266147,42.05461,858.758],[-6.26626,42.054764,859.67],[-6.26648,42.054939,858.393],[-6.266665,42.055098,856.895],[-6.266794,42.055325,857.349],[-6.26693,42.055503,857.323],[-6.266946,42.055666,859.309],[-6.266901,42.055907,862.36],[-6.266922,42.056088,862.872],[-6.267003,42.056325,863.731],[-6.267172,42.056524,861.896],[-6.267266,42.056556,860.79],[-6.267408,42.056596,859.317],[-6.267523,42.056666,858.494],[-6.267679,42.056948,856.816],[-6.267842,42.057392,858.279],[-6.267966,42.057733,856.239],[-6.267974,42.057922,854.101],[-6.267904,42.058239,852.321],[-6.267775,42.058498,851.909],[-6.267593,42.058777,850.724],[-6.26747,42.058984,849.536],[-6.267314,42.059087,849.475],[-6.267169,42.059143,849.45],[-6.267056,42.059235,850.124],[-6.267164,42.05934,849.791],[-6.267239,42.059398,849.648],[-6.267416,42.05945,849.84],[-6.267566,42.059406,849.833],[-6.267735,42.059356,850.057],[-6.267824,42.059334,850.2],[-6.268086,42.059374,852.22],[-6.268301,42.05946,854.709],[-6.268548,42.059559,856.716],[-6.268829,42.059794,859.648],[-6.269044,42.060019,860.077],[-6.269224,42.060292,862.252],[-6.269379,42.060605,864.956],[-6.269489,42.060782,864.873],[-6.269578,42.061202,863.49],[-6.269508,42.061457,862.152],[-6.269326,42.061855,860.765],[-6.268902,42.062337,862.467],[-6.268789,42.062536,863.881],[-6.268682,42.062859,867.819],[-6.268677,42.06307,868.809],[-6.268795,42.063205,869.317],[-6.26909,42.063492,870.589],[-6.269229,42.063835,870.728],[-6.269363,42.064177,870.973],[-6.269379,42.064623,871.727],[-6.269385,42.06489,871.064],[-6.269358,42.065193,869.371],[-6.269326,42.065483,868.073],[-6.269366,42.065961,865.186],[-6.269369,42.066437,863.739],[-6.269366,42.066569,862.501],[-6.269441,42.066815,860.021],[-6.269452,42.066957,858.409],[-6.269385,42.067212,855.984],[-6.269328,42.067375,856.696],[-6.26931,42.067618,858.295],[-6.269202,42.067801,859.87],[-6.269288,42.068064,861.724],[-6.269342,42.068347,864.191],[-6.269438,42.068657,866.098],[-6.269658,42.068948,866.32],[-6.269889,42.06939,864.783],[-6.270125,42.069824,862.331],[-6.270688,42.070561,858.261],[-6.270962,42.070804,855.007],[-6.271305,42.071242,849.009],[-6.271509,42.071238,847.664],[-6.271729,42.071277,845.766],[-6.272013,42.071425,844.125],[-6.27211,42.071576,844.83],[-6.272072,42.071859,846.524],[-6.272115,42.072022,847.711],[-6.272378,42.072373,849.478],[-6.273317,42.072476,852.84],[-6.273767,42.072548,852.343],[-6.274534,42.072842,853.586],[-6.275017,42.072986,852.76],[-6.275597,42.073189,852.226],[-6.275951,42.073627,849.709],[-6.27631,42.074316,843.699],[-6.2766,42.074638,842.821],[-6.277233,42.074861,839.75],[-6.277748,42.075052,838.065],[-6.278043,42.075351,839.079],[-6.278172,42.075646,839.036],[-6.278708,42.076199,839.663],[-6.279202,42.076494,840.055],[-6.279781,42.076788,839.478],[-6.280135,42.076848,840.617],[-6.280553,42.076808,841.887],[-6.28124,42.076701,841.815],[-6.282098,42.076605,840.209],[-6.282678,42.07655,839.882],[-6.283407,42.07641,841.144],[-6.283799,42.076362,842.373],[-6.284341,42.076227,840.668],[-6.284952,42.0761,841.522],[-6.285569,42.075904,846.659],[-6.28603,42.075761,847.596],[-6.286417,42.075685,850.668],[-6.286728,42.075666,852.841],[-6.286969,42.075666,854.123],[-6.287184,42.075737,853.883],[-6.287479,42.075857,852.711],[-6.287677,42.075968,853.909],[-6.287924,42.076044,855.963],[-6.288192,42.076052,857.345],[-6.288423,42.076016,857.954],[-6.288825,42.075964,859.919],[-6.289249,42.07596,862.863],[-6.289737,42.076008,864.83],[-6.290231,42.076092,865.687],[-6.293063,42.07655,869.879],[-6.295316,42.076709,879.152],[-6.297183,42.077266,886.794],[-6.298342,42.077633,876.957],[-6.299694,42.077824,867.722],[-6.300702,42.077633,860.609],[-6.301646,42.077489,857.03],[-6.302569,42.077696,856.432],[-6.303856,42.078381,861.631],[-6.305037,42.079432,865.176],[-6.30568,42.079894,866.47],[-6.307311,42.080372,873.517],[-6.308942,42.080818,873.344],[-6.310937,42.081168,882.146],[-6.312718,42.081598,890.779],[-6.314607,42.082219,894.073],[-6.316645,42.082697,899.485],[-6.319242,42.083175,902.613],[-6.320229,42.083366,904.909],[-6.321087,42.083852,905.198],[-6.321892,42.084353,900.93],[-6.322342,42.084919,903.069],[-6.322782,42.085683,907.514],[-6.323093,42.086256,908.658],[-6.323072,42.087204,904.115],[-6.323179,42.087729,901.832],[-6.3232,42.088271,898.644],[-6.323351,42.088748,898.477],[-6.323705,42.089425,893.034],[-6.323919,42.089982,893.155],[-6.323973,42.090532,891.01],[-6.324391,42.090946,890.509],[-6.325057,42.091344,891.934],[-6.3254,42.091567,892.436],[-6.325496,42.091865,891.885],[-6.32569,42.092116,892.41],[-6.326017,42.092339,892.824],[-6.326325,42.092443,894.381],[-6.32669,42.092512,896.968],[-6.326795,42.0926,896.79],[-6.326813,42.092851,896.323],[-6.326862,42.092936,896.461],[-6.327138,42.093056,897.621],[-6.327468,42.093356,899.813],[-6.327658,42.093591,900.009],[-6.327814,42.093915,896.847],[-6.327886,42.0942,895.689],[-6.327792,42.094351,896.438],[-6.327634,42.094455,897.183],[-6.326931,42.094441,895.097],[-6.32672,42.094692,894.464],[-6.326424,42.095203,893.811],[-6.326065,42.096288,897.573],[-6.325754,42.097012,899.966],[-6.325883,42.097458,900.234],[-6.326398,42.098007,901.255],[-6.326698,42.098445,902.11],[-6.327063,42.099345,906.009],[-6.327095,42.100228,908.324],[-6.327707,42.101335,911.746],[-6.328715,42.10233,915.445],[-6.329498,42.1028,915.68],[-6.330271,42.103492,918.294],[-6.331311,42.104368,921.371],[-6.331923,42.106493,927.098],[-6.331977,42.107154,928.85],[-6.332245,42.107886,931.843],[-6.332942,42.109502,938.159],[-6.333833,42.111547,950.503],[-6.334412,42.113123,956.923],[-6.335013,42.115208,967.709],[-6.335528,42.117325,983.056],[-6.336451,42.119363,978.688],[-6.337008,42.120063,978.557],[-6.337523,42.120867,976.272],[-6.337438,42.121694,977.096],[-6.336869,42.123167,985.473],[-6.336794,42.123692,983.97],[-6.337116,42.124153,983.172],[-6.337523,42.124623,981.015],[-6.338071,42.125323,979.639],[-6.338457,42.125578,978.101],[-6.338457,42.126031,979.121],[-6.338124,42.126357,981.109],[-6.337985,42.126739,983.824],[-6.338167,42.12705,987.266],[-6.3374,42.12746,987.395],[-6.336708,42.127643,989.11],[-6.336236,42.127726,989.624],[-6.335667,42.127802,988.011],[-6.33548,42.127933,987.748]]}},{"type":"Feature","properties":{"Name":"Etapa 2 — Muelas de los Caballeros–Quintanilla de Yuso","etapa":2,"original_name":"ETAPA 2 - CAMINO DE SANTIAGO DE LOS FALIFOS. Muelas de los Caballeros - Quintanilla de Yuso - Wikiloc","point_count":338,"length_km":19.85},"geometry":{"type":"LineString","coordinates":[[-6.335402,42.128017,988.137],[-6.334995,42.128244,988.349],[-6.334512,42.128292,986.413],[-6.334067,42.128372,985.809],[-6.333965,42.128308,985.294],[-6.333482,42.128364,984.729],[-6.333357,42.128488,985.284],[-6.333097,42.12857,984.353],[-6.333,42.128634,983.656],[-6.332917,42.128729,982.771],[-6.332606,42.128775,979.853],[-6.332172,42.128572,978.549],[-6.331957,42.128427,976.945],[-6.331646,42.128112,974.129],[-6.331464,42.127907,971.8],[-6.33148,42.127529,970.02],[-6.329959,42.127613,964.009],[-6.329863,42.12768,962.463],[-6.329675,42.127881,958.358],[-6.328902,42.128035,953.533],[-6.328696,42.128015,951.672],[-6.328463,42.127916,949.465],[-6.32791,42.127522,943.25],[-6.327711,42.127286,942.022],[-6.327088,42.126478,933.118],[-6.327128,42.126523,934.474],[-6.326988,42.126244,929.467],[-6.325902,42.1262,924.981],[-6.325739,42.12577,927.019],[-6.32538,42.125312,928.709],[-6.325358,42.125531,929.997],[-6.325262,42.125849,932.022],[-6.325053,42.126112,934.517],[-6.324827,42.12641,936.926],[-6.32467,42.12686,942.939],[-6.324396,42.127333,948.464],[-6.324278,42.127859,956.046],[-6.324332,42.128416,962.282],[-6.324286,42.129221,971.948],[-6.32414,42.129902,977.937],[-6.32384,42.130368,983.449],[-6.323475,42.130765,986.713],[-6.323303,42.131107,987.909],[-6.322912,42.131052,989.284],[-6.322284,42.131167,993.589],[-6.321914,42.131505,996.394],[-6.321609,42.132409,1000.843],[-6.321625,42.132405,1000.866],[-6.321265,42.133249,1003.291],[-6.320724,42.133913,1005.683],[-6.319302,42.135478,1008.099],[-6.317735,42.13725,1006.615],[-6.316105,42.139033,1002.135],[-6.314753,42.140466,1001.686],[-6.313544,42.141774,1002.214],[-6.313254,42.141197,1001.009],[-6.313039,42.141149,1000.934],[-6.312755,42.141077,1000.719],[-6.312508,42.140926,1001.664],[-6.311623,42.14099,1001.473],[-6.310551,42.141077,1001.656],[-6.31032,42.141181,1001.951],[-6.310095,42.141189,1001.793],[-6.309821,42.14126,1001.979],[-6.309395,42.141258,1001.675],[-6.309124,42.141377,1001.684],[-6.308211,42.141578,1000.307],[-6.307983,42.141598,1000.417],[-6.307465,42.141815,999.409],[-6.306867,42.141962,996.169],[-6.306481,42.142102,993.754],[-6.306002,42.142378,993.099],[-6.305659,42.142463,994.398],[-6.305453,42.142481,994.961],[-6.305292,42.142441,995.466],[-6.304683,42.142583,998.728],[-6.304401,42.142776,997.754],[-6.30416,42.142905,997.26],[-6.303865,42.143086,996.932],[-6.30363,42.143237,998.092],[-6.303509,42.143259,998.211],[-6.303338,42.143275,998.309],[-6.30308,42.143249,999.034],[-6.302826,42.143209,999.699],[-6.302195,42.143044,999.724],[-6.301965,42.14304,1000.533],[-6.301683,42.143078,1001.746],[-6.301377,42.143152,1003.051],[-6.301007,42.143277,1004.213],[-6.30062,42.143517,1004.849],[-6.300287,42.143761,1004.235],[-6.300032,42.144038,1003.838],[-6.299688,42.144408,1005.07],[-6.29927,42.144675,1002.617],[-6.299042,42.144866,1000.309],[-6.29879,42.14529,998.524],[-6.298463,42.14579,993.789],[-6.298415,42.146056,993.014],[-6.29849,42.146436,991.743],[-6.298305,42.146987,990.626],[-6.29784,42.147631,988.421],[-6.297698,42.14793,985.373],[-6.297561,42.148395,981.369],[-6.297441,42.148523,981.595],[-6.297283,42.148575,982.214],[-6.296942,42.148489,982.254],[-6.29651,42.148381,984.509],[-6.296245,42.148411,985.409],[-6.295974,42.148353,985.462],[-6.295759,42.14851,987.527],[-6.29573,42.148737,988.722],[-6.295698,42.149037,988.731],[-6.295792,42.149262,989.054],[-6.295955,42.149569,990.199],[-6.296255,42.149875,991.221],[-6.296633,42.150183,993.067],[-6.29673,42.150498,994.093],[-6.296716,42.151238,996.679],[-6.296626,42.15188,1001.205],[-6.296669,42.152138,1002.425],[-6.296696,42.152409,1003.309],[-6.296645,42.153014,1009.028],[-6.296232,42.15422,1018.473],[-6.295948,42.154868,1022.918],[-6.295764,42.155104,1025.817],[-6.295147,42.155733,1029.88],[-6.294786,42.15619,1034.215],[-6.293752,42.157352,1041.587],[-6.293392,42.158219,1042.633],[-6.293356,42.158707,1044.089],[-6.293523,42.159152,1044.537],[-6.293668,42.159677,1043.049],[-6.29371,42.160686,1041.613],[-6.293544,42.162142,1032.209],[-6.293531,42.162757,1031.024],[-6.293708,42.163266,1029.779],[-6.293611,42.163684,1028.314],[-6.293603,42.164022,1031.113],[-6.293664,42.164427,1036.186],[-6.293873,42.165039,1037.031],[-6.29428,42.165731,1036.523],[-6.294697,42.166615,1034.859],[-6.29489,42.167228,1034.765],[-6.295684,42.168708,1028.773],[-6.296293,42.169586,1025.085],[-6.296572,42.169821,1025.413],[-6.296985,42.169948,1028.209],[-6.297023,42.170262,1032.868],[-6.29728,42.170664,1038.563],[-6.297844,42.171593,1053.998],[-6.298181,42.172298,1067.067],[-6.298458,42.17277,1075.39],[-6.298812,42.173216,1079.125],[-6.299177,42.174007,1092.167],[-6.299541,42.17429,1095.323],[-6.300314,42.174576,1103.749],[-6.301,42.174775,1114.585],[-6.30109,42.175317,1121.889],[-6.301175,42.175536,1121.817],[-6.301374,42.175496,1122.009],[-6.301631,42.175404,1123.789],[-6.302468,42.175643,1121.454],[-6.304218,42.176099,1114.219],[-6.305752,42.176417,1104.078],[-6.306525,42.176676,1099.911],[-6.307549,42.177002,1095.726],[-6.309046,42.177408,1086.558],[-6.311175,42.177969,1071.624],[-6.312011,42.178244,1069.99],[-6.312317,42.17835,1068.987],[-6.312478,42.178459,1068.342],[-6.312515,42.178688,1067.126],[-6.312435,42.178954,1068.009],[-6.31227,42.179392,1071.429],[-6.312369,42.179823,1075.934],[-6.312334,42.180058,1078.249],[-6.312538,42.180551,1084.338],[-6.312978,42.181092,1088.361],[-6.313701,42.181629,1093.586],[-6.314164,42.181832,1096.198],[-6.314894,42.181994,1102.014],[-6.315704,42.182332,1103.82],[-6.316205,42.182715,1104.955],[-6.31708,42.183399,1110.607],[-6.317461,42.183701,1113.017],[-6.317724,42.184254,1117.009],[-6.317848,42.184671,1120.616],[-6.317937,42.185191,1126.921],[-6.31795,42.185425,1128.076],[-6.317921,42.185883,1128.845],[-6.318099,42.186636,1138.028],[-6.318222,42.186839,1141.513],[-6.318955,42.187427,1156.585],[-6.319835,42.187948,1171.051],[-6.320194,42.188262,1178.687],[-6.320822,42.188958,1196.176],[-6.321176,42.189133,1206.59],[-6.321787,42.189137,1215.619],[-6.322249,42.188998,1218.309],[-6.322678,42.188733,1217.138],[-6.323064,42.188752,1226.163],[-6.323783,42.189067,1242.438],[-6.325284,42.18994,1261.337],[-6.326137,42.190358,1265.81],[-6.32697,42.190899,1272.575],[-6.327694,42.191519,1280.937],[-6.328554,42.192609,1299.733],[-6.329674,42.194676,1334.739],[-6.330238,42.195599,1348.653],[-6.331051,42.196558,1367.704],[-6.331626,42.19706,1379.214],[-6.332307,42.197828,1400.909],[-6.333117,42.198309,1409.226],[-6.334278,42.200043,1444.571],[-6.335228,42.201226,1461.536],[-6.33548,42.201739,1468.845],[-6.335647,42.202152,1471.498],[-6.335604,42.2029,1470.463],[-6.334386,42.203567,1463.925],[-6.334392,42.203817,1455.171],[-6.334691,42.203821,1454.947],[-6.335322,42.20398,1450.858],[-6.335617,42.204187,1442.952],[-6.33591,42.205242,1421.817],[-6.336028,42.205532,1417.909],[-6.336152,42.206348,1407.386],[-6.336216,42.207048,1395.541],[-6.336828,42.208026,1375.716],[-6.336961,42.208339,1370.275],[-6.337095,42.208494,1367.978],[-6.336805,42.208414,1363.373],[-6.336371,42.20837,1353.815],[-6.33651,42.20872,1347.951],[-6.337368,42.209515,1340.297],[-6.338012,42.210286,1331.366],[-6.338441,42.210974,1322.429],[-6.33871,42.211625,1312.221],[-6.338812,42.212217,1300.809],[-6.339171,42.212853,1288.797],[-6.339879,42.213469,1280.032],[-6.340754,42.214339,1262.937],[-6.341322,42.2148,1255.436],[-6.341751,42.215034,1251.669],[-6.343205,42.215607,1254.574],[-6.343865,42.216091,1252.976],[-6.344428,42.216766,1247.832],[-6.344434,42.2171,1241.318],[-6.344241,42.217541,1228.063],[-6.344257,42.218062,1221.144],[-6.344434,42.218963,1214.818],[-6.344348,42.219277,1210.809],[-6.344385,42.219778,1209.947],[-6.344514,42.220111,1207.082],[-6.344659,42.220481,1203.567],[-6.344718,42.221339,1195.626],[-6.345957,42.22263,1196.759],[-6.346998,42.223496,1198.694],[-6.347894,42.224104,1189.696],[-6.348602,42.224668,1179.432],[-6.348639,42.224295,1181.488],[-6.348709,42.224108,1181.123],[-6.349058,42.223706,1179.983],[-6.350495,42.22439,1158.611],[-6.351234,42.224783,1148.909],[-6.351588,42.225057,1143.793],[-6.352221,42.225589,1134.918],[-6.352825,42.226239,1128.153],[-6.353118,42.226662,1124.552],[-6.353569,42.227576,1119.385],[-6.353762,42.227877,1116.42],[-6.353939,42.228179,1114.552],[-6.354277,42.228461,1110.068],[-6.354385,42.228664,1108.544],[-6.354733,42.22901,1106.899],[-6.355082,42.229093,1104.007],[-6.355549,42.229149,1099.927],[-6.356128,42.229447,1095.809],[-6.3566,42.229888,1091.35],[-6.356764,42.230172,1088.825],[-6.356995,42.230411,1086.98],[-6.357151,42.230526,1085.429],[-6.357682,42.230562,1083.482],[-6.357885,42.230645,1080.727],[-6.358298,42.230979,1076.029],[-6.358529,42.23109,1076.665],[-6.358749,42.231404,1077.491],[-6.358924,42.232068,1077.295],[-6.358849,42.232398,1076.149],[-6.358532,42.23329,1073.923],[-6.358511,42.233545,1073.909],[-6.358607,42.23372,1073.92],[-6.358822,42.233831,1074.825],[-6.359267,42.234033,1074.43],[-6.359739,42.234351,1074.639],[-6.360083,42.234634,1075.012],[-6.360405,42.23515,1075.467],[-6.360609,42.235774,1075.169],[-6.361014,42.236548,1074.455],[-6.361111,42.236985,1071.441],[-6.361363,42.237287,1069.542],[-6.36228,42.237693,1070.722],[-6.362813,42.237949,1070.814],[-6.363135,42.238098,1071.309],[-6.363615,42.238365,1072.635],[-6.364009,42.238647,1069.72],[-6.364366,42.238746,1069.485],[-6.364696,42.238758,1069.934],[-6.365111,42.23873,1071.027],[-6.365487,42.238654,1072.232],[-6.365806,42.238591,1072.474],[-6.366246,42.238605,1071.59],[-6.366645,42.238626,1073.516],[-6.367235,42.238757,1075.372],[-6.367887,42.23901,1071.813],[-6.368487,42.239232,1074.114],[-6.369151,42.239713,1072.809],[-6.369684,42.240033,1071.638],[-6.370242,42.240305,1068.823],[-6.370572,42.240417,1067.838],[-6.371167,42.240444,1067.457],[-6.371537,42.240454,1068.45],[-6.371941,42.240479,1070.145],[-6.373167,42.240676,1072.637],[-6.373266,42.240736,1072.693],[-6.373392,42.240996,1070.369],[-6.373548,42.24121,1068.935],[-6.37384,42.241553,1067.786],[-6.374014,42.241917,1067.814],[-6.374148,42.242052,1067.409],[-6.374393,42.242206,1066.134],[-6.37464,42.242263,1065.739],[-6.374927,42.242299,1066.344],[-6.375222,42.242287,1066.813],[-6.37583,42.242208,1064.966],[-6.376366,42.242013,1066.891],[-6.376822,42.24187,1067.913],[-6.377165,42.241743,1069.459],[-6.377262,42.241651,1070.185]]}},{"type":"Feature","properties":{"Name":"Etapa 3 — Quintanilla de Yuso–Corporales","etapa":3,"original_name":"ETAPA 3 - CAMINO DE SANTIAGO DE LOS FALIFOS - Quintanilla de Yuso - Corporales - Wikiloc","point_count":213,"length_km":12.999},"geometry":{"type":"LineString","coordinates":[[-6.377285,42.241553,1071.021],[-6.377542,42.241588,1071.641],[-6.377783,42.241585,1071.905],[-6.377934,42.241481,1073.009],[-6.378111,42.241326,1074.153],[-6.378384,42.241017,1075.095],[-6.378599,42.240838,1075.085],[-6.378695,42.240619,1075.224],[-6.378728,42.240449,1075.465],[-6.378835,42.240274,1075.346],[-6.378942,42.240167,1075.023],[-6.379157,42.240052,1074.979],[-6.37957,42.239774,1076.932],[-6.379731,42.239694,1077.459],[-6.38031,42.239615,1077.203],[-6.3806,42.239567,1076.723],[-6.380868,42.23948,1076.709],[-6.381072,42.239428,1076.576],[-6.381292,42.239309,1077.498],[-6.381683,42.239253,1076.418],[-6.382193,42.239162,1076.287],[-6.382783,42.239059,1076.718],[-6.38369,42.239047,1076.379],[-6.385664,42.239325,1078.636],[-6.386077,42.239329,1079.432],[-6.386565,42.239285,1079.065],[-6.387069,42.239178,1080.981],[-6.387488,42.239083,1079.161],[-6.388255,42.238928,1079.417],[-6.38878,42.238884,1081.109],[-6.389666,42.238955,1082.329],[-6.390755,42.23909,1080.931],[-6.391935,42.239218,1077.581],[-6.392879,42.239376,1075.55],[-6.394172,42.23977,1076.751],[-6.396945,42.240655,1077.792],[-6.399665,42.241549,1083.179],[-6.401719,42.242216,1084.375],[-6.402331,42.242454,1085.368],[-6.403565,42.243113,1086.033],[-6.405689,42.244257,1085.323],[-6.406311,42.244515,1086.115],[-6.407315,42.244885,1086.009],[-6.408591,42.245337,1089.334],[-6.409471,42.245667,1091.436],[-6.410651,42.246334,1091.296],[-6.413033,42.247668,1092.435],[-6.413382,42.247803,1093.326],[-6.413768,42.247871,1094.687],[-6.414127,42.247867,1093.884],[-6.414701,42.24774,1094.15],[-6.415356,42.247645,1094.233],[-6.415737,42.247633,1095.663],[-6.416246,42.247664,1095.744],[-6.416836,42.24774,1096.318],[-6.418033,42.247982,1100.309],[-6.419921,42.248387,1097.977],[-6.420763,42.248598,1096.849],[-6.42167,42.249153,1099.029],[-6.422179,42.249525,1097.518],[-6.422764,42.24995,1098.989],[-6.423528,42.250361,1098.96],[-6.424859,42.251063,1099.187],[-6.425436,42.25156,1100.573],[-6.42712,42.253331,1107.616],[-6.429172,42.254955,1111.487],[-6.429419,42.255231,1113.742],[-6.43036,42.256416,1115.426],[-6.430709,42.256777,1114.909],[-6.431819,42.257853,1118.429],[-6.432562,42.258709,1120.911],[-6.433096,42.259092,1123.071],[-6.433477,42.259324,1121.77],[-6.433834,42.259501,1119.771],[-6.434139,42.259606,1118.942],[-6.434257,42.259808,1118.159],[-6.434062,42.260033,1117.835],[-6.433699,42.260209,1117.248],[-6.434418,42.260795,1119.872],[-6.434606,42.26095,1120.713],[-6.435228,42.261232,1121.114],[-6.435049,42.261559,1120.109],[-6.434788,42.261807,1117.818],[-6.434673,42.261901,1117.49],[-6.434601,42.262292,1117.16],[-6.434684,42.262419,1117.169],[-6.434869,42.26255,1117.99],[-6.436304,42.263407,1120.121],[-6.43728,42.263991,1122.348],[-6.437988,42.264297,1127.324],[-6.438729,42.264372,1130.257],[-6.439539,42.264372,1132.657],[-6.440783,42.264622,1135.7],[-6.441497,42.264749,1135.32],[-6.442398,42.264793,1134.909],[-6.443358,42.264995,1135.036],[-6.444007,42.265293,1134.028],[-6.444308,42.265785,1136.118],[-6.444452,42.266428,1137.667],[-6.444764,42.266829,1138.088],[-6.445525,42.267389,1138.579],[-6.446003,42.267635,1140.936],[-6.447301,42.268302,1138.272],[-6.447752,42.268513,1137.425],[-6.448969,42.268997,1136.879],[-6.450133,42.269489,1136.005],[-6.452209,42.270319,1144.325],[-6.452751,42.270605,1143.909],[-6.454039,42.271482,1145.598],[-6.455101,42.272244,1151.34],[-6.455927,42.272621,1153.41],[-6.456689,42.273046,1157.379],[-6.457424,42.273625,1159.52],[-6.457885,42.274141,1163.971],[-6.45826,42.274768,1166.538],[-6.459199,42.276336,1166.134],[-6.459516,42.276844,1167.267],[-6.459687,42.277257,1166.259],[-6.45973,42.277686,1168.303],[-6.459816,42.278293,1169.023],[-6.459891,42.278797,1168.409],[-6.460208,42.279428,1167.636],[-6.460471,42.280047,1167.828],[-6.460615,42.280551,1169.018],[-6.460846,42.281107,1171.367],[-6.460964,42.281508,1169.758],[-6.46112,42.281857,1171.769],[-6.461297,42.282131,1172.056],[-6.461372,42.282457,1172.422],[-6.461393,42.283111,1169.915],[-6.461388,42.283369,1168.245],[-6.461822,42.283778,1168.447],[-6.462029,42.284383,1172.111],[-6.462184,42.284919,1175.109],[-6.462203,42.285139,1178.185],[-6.46215,42.285362,1180.767],[-6.461881,42.285719,1184.017],[-6.461635,42.286036,1186.776],[-6.46105,42.28658,1182.847],[-6.460809,42.286806,1184.528],[-6.460492,42.287223,1186.585],[-6.460224,42.287588,1186.391],[-6.460111,42.287786,1185.814],[-6.460063,42.288072,1184.937],[-6.460127,42.288342,1185.249],[-6.460251,42.289405,1186.313],[-6.46009,42.289691,1185.609],[-6.459891,42.289993,1188.064],[-6.459677,42.290215,1189.446],[-6.459382,42.290517,1189.126],[-6.459242,42.290751,1191.685],[-6.459092,42.291052,1192.886],[-6.458899,42.291485,1190.257],[-6.458952,42.291921,1192.334],[-6.459049,42.292735,1196.93],[-6.459162,42.29337,1200.433],[-6.459328,42.293862,1204.643],[-6.459398,42.294401,1201.464],[-6.45951,42.295036,1202.11],[-6.459661,42.295382,1205.109],[-6.459875,42.295707,1204.975],[-6.460117,42.295993,1204.137],[-6.46039,42.296247,1204.377],[-6.460395,42.296497,1202.956],[-6.460374,42.29704,1201.057],[-6.460369,42.297778,1202.488],[-6.460326,42.29835,1201.645],[-6.460481,42.298838,1206.471],[-6.460658,42.299472,1207.084],[-6.460809,42.300036,1205.922],[-6.460916,42.300587,1208.862],[-6.461061,42.301083,1209.408],[-6.461286,42.301353,1209.909],[-6.461506,42.301651,1211.343],[-6.461742,42.302083,1211.685],[-6.461892,42.302329,1213.025],[-6.461897,42.302678,1215.414],[-6.461817,42.303079,1214.435],[-6.461694,42.303377,1213.816],[-6.461592,42.30371,1215.633],[-6.461458,42.304146,1216.789],[-6.46134,42.304404,1217.082],[-6.461045,42.304694,1217.978],[-6.460857,42.304948,1219.833],[-6.460664,42.305313,1222.626],[-6.460503,42.305455,1223.409],[-6.460213,42.305816,1224.018],[-6.46002,42.306213,1223.81],[-6.459779,42.306487,1224.25],[-6.459543,42.306816,1224.569],[-6.459167,42.307308,1226.23],[-6.459076,42.307526,1228.091],[-6.45899,42.307828,1229.118],[-6.458834,42.308098,1231.294],[-6.458641,42.308272,1232.367],[-6.45833,42.308482,1231.871],[-6.45803,42.308637,1232.241],[-6.457949,42.308657,1232.015],[-6.457354,42.308897,1230.809],[-6.456871,42.309153,1232.148],[-6.456512,42.309349,1233.04],[-6.456337,42.309542,1233.66],[-6.455812,42.309843,1234.679],[-6.455482,42.31004,1236.65],[-6.455203,42.310226,1238.471],[-6.454983,42.310331,1238.258],[-6.454768,42.310333,1236.034],[-6.454503,42.310327,1233.137],[-6.454352,42.310323,1232.143],[-6.454149,42.310339,1231.464],[-6.454023,42.310369,1231.41],[-6.453918,42.310462,1231.309],[-6.453859,42.310535,1231.385]]}},{"type":"Feature","properties":{"Name":"Etapa 4 — Corporales–San Cristóbal de Valdueza","etapa":4,"original_name":"ETAPA-4-CAMINO DE SANTIAGO DE LOS FALIFOS - Corporales - San Cristóbal de Valdueza - Wikiloc","point_count":435,"length_km":30.85},"geometry":{"type":"LineString","coordinates":[[-6.453843,42.310537,1231.254],[-6.453497,42.310609,1232.356],[-6.453296,42.310617,1232.611],[-6.453097,42.310768,1234.409],[-6.452952,42.311025,1237.176],[-6.452783,42.311275,1239.418],[-6.452539,42.311511,1242.158],[-6.452306,42.311603,1244.487],[-6.451898,42.311773,1247.069],[-6.451448,42.311977,1250.876],[-6.451185,42.312128,1252.854],[-6.450144,42.312533,1255.09],[-6.449828,42.312574,1254.982],[-6.449085,42.312705,1257.147],[-6.4485,42.312874,1259.129],[-6.447921,42.313132,1261.521],[-6.446933,42.313735,1264.409],[-6.446225,42.314189,1264.585],[-6.445675,42.314711,1264.947],[-6.444764,42.315968,1273.147],[-6.443251,42.317753,1279.536],[-6.442532,42.318181,1284.468],[-6.441153,42.319018,1296.115],[-6.440858,42.31953,1301.153],[-6.440574,42.320125,1302.939],[-6.440676,42.320585,1305.311],[-6.440778,42.321002,1309.549],[-6.440665,42.321577,1308.002],[-6.440445,42.3221,1307.222],[-6.440043,42.322675,1304.809],[-6.439281,42.323437,1309.225],[-6.438707,42.323976,1307.547],[-6.43764,42.324571,1304.387],[-6.437184,42.324892,1306.216],[-6.436776,42.325245,1308.148],[-6.436357,42.325495,1308.965],[-6.435644,42.325753,1307.993],[-6.434995,42.325932,1308.469],[-6.434335,42.326229,1309.751],[-6.43389,42.326368,1311.987],[-6.433209,42.326463,1313.842],[-6.432608,42.326515,1313.626],[-6.432002,42.32661,1315.109],[-6.430226,42.32699,1320.419],[-6.42984,42.327244,1322.821],[-6.42947,42.327486,1326.251],[-6.428858,42.327724,1327.92],[-6.428246,42.327942,1329.492],[-6.427726,42.328045,1329.939],[-6.427318,42.328081,1330.167],[-6.426712,42.328113,1330.623],[-6.425967,42.328196,1327.375],[-6.425532,42.328359,1327.772],[-6.4252,42.328573,1328.713],[-6.42476,42.328854,1331.614],[-6.424727,42.329096,1336.009],[-6.424888,42.329291,1339.138],[-6.425918,42.330044,1337.84],[-6.427968,42.331662,1352.56],[-6.428407,42.33217,1353.049],[-6.42904,42.333272,1360.491],[-6.430875,42.335033,1373.418],[-6.432345,42.336572,1383.146],[-6.432517,42.336992,1386.642],[-6.432881,42.339181,1406.534],[-6.433246,42.340204,1419.882],[-6.433933,42.34091,1424.943],[-6.43463,42.342615,1441.317],[-6.434866,42.343265,1450.209],[-6.435424,42.343764,1455.639],[-6.435843,42.344145,1462.811],[-6.437227,42.344327,1472.711],[-6.438096,42.344621,1477.28],[-6.438943,42.345081,1488.112],[-6.43963,42.34558,1492.689],[-6.440338,42.34627,1501.457],[-6.441797,42.347999,1525.523],[-6.44213,42.348887,1530.045],[-6.44243,42.349886,1541.772],[-6.44258,42.35098,1552.313],[-6.442645,42.352122,1564.614],[-6.442473,42.35209,1570.109],[-6.442355,42.351995,1573.438],[-6.441625,42.350671,1583.77],[-6.440778,42.349712,1598.68],[-6.439791,42.348927,1605.229],[-6.438879,42.348475,1615.621],[-6.437999,42.348284,1621.788],[-6.437302,42.348253,1627.796],[-6.436808,42.348356,1630.562],[-6.43654,42.348586,1634.334],[-6.4361,42.349109,1646.919],[-6.435735,42.349299,1650.709],[-6.435145,42.349363,1651.419],[-6.432678,42.349355,1662.609],[-6.432195,42.349497,1668.542],[-6.431733,42.34983,1677.274],[-6.431497,42.350116,1682.024],[-6.431701,42.350362,1686.743],[-6.432034,42.350441,1688.675],[-6.432635,42.350393,1691.132],[-6.433246,42.350473,1697.35],[-6.436014,42.351297,1719.386],[-6.436926,42.351607,1726.278],[-6.437291,42.35186,1728.872],[-6.437634,42.352265,1733.713],[-6.437924,42.352693,1735.214],[-6.438106,42.353097,1740.109],[-6.438417,42.35435,1754.558],[-6.438793,42.354992,1765.54],[-6.439458,42.35588,1773.86],[-6.440874,42.357236,1790.749],[-6.441218,42.357815,1798.921],[-6.441936,42.358576,1807.768],[-6.443095,42.359638,1823.316],[-6.445295,42.36112,1848.222],[-6.446582,42.361882,1860.074],[-6.447086,42.362341,1864.535],[-6.448803,42.36403,1890.986],[-6.449425,42.364402,1895.014],[-6.450273,42.364838,1902.609],[-6.452075,42.365417,1917.014],[-6.453427,42.365742,1931.626],[-6.456335,42.366067,1940.016],[-6.459264,42.366424,1951.015],[-6.460851,42.36663,1954.977],[-6.462772,42.366709,1947.734],[-6.464821,42.36686,1935.092],[-6.466591,42.367042,1935.278],[-6.467943,42.367288,1928.85],[-6.468523,42.367549,1923.613],[-6.469703,42.368295,1918.743],[-6.472181,42.369539,1905.407],[-6.473919,42.37034,1898.809],[-6.474638,42.370673,1896.322],[-6.474842,42.370998,1896.634],[-6.475046,42.371465,1896.344],[-6.476258,42.372963,1879.253],[-6.476709,42.373161,1875.735],[-6.47732,42.373272,1871.082],[-6.480292,42.373677,1865.27],[-6.48261,42.374002,1853.576],[-6.484004,42.374041,1859.498],[-6.484326,42.373986,1862.071],[-6.484573,42.373732,1863.941],[-6.484852,42.373336,1866.715],[-6.485313,42.37305,1866.509],[-6.486472,42.37286,1867.428],[-6.487373,42.372805,1871.01],[-6.488253,42.372844,1876.57],[-6.488768,42.372932,1880.769],[-6.489326,42.37309,1878.861],[-6.489723,42.373383,1883.488],[-6.491547,42.375119,1887.636],[-6.492705,42.376078,1887.492],[-6.494261,42.377481,1885.184],[-6.494765,42.378099,1884.612],[-6.495076,42.378614,1878.432],[-6.49528,42.378987,1880.605],[-6.495119,42.379288,1884.209],[-6.494765,42.379478,1885.912],[-6.494733,42.379787,1887.444],[-6.495055,42.38031,1882.844],[-6.495355,42.380833,1883.173],[-6.495119,42.381071,1887.475],[-6.494755,42.381246,1887.422],[-6.494561,42.381523,1884.55],[-6.494712,42.38188,1883.036],[-6.495237,42.382276,1878.818],[-6.495699,42.382466,1872.938],[-6.49646,42.383053,1876.07],[-6.497855,42.384313,1877.017],[-6.498402,42.385097,1879.409],[-6.500269,42.386357,1878.674],[-6.502115,42.388061,1874.826],[-6.503745,42.389543,1873.316],[-6.504786,42.390192,1877.525],[-6.506116,42.390953,1878.487],[-6.507039,42.391658,1878.064],[-6.507994,42.392681,1886.482],[-6.508799,42.393235,1886.478],[-6.509303,42.393402,1887.77],[-6.509732,42.393536,1886.641],[-6.510065,42.393877,1888.581],[-6.509928,42.394047,1887.809],[-6.509737,42.394188,1885.009],[-6.509558,42.394202,1881.445],[-6.509311,42.394148,1878.267],[-6.50804,42.393728,1868.497],[-6.50749,42.393639,1865.786],[-6.50691,42.393497,1862.698],[-6.50624,42.393322,1858.025],[-6.505773,42.393382,1854.953],[-6.505322,42.393639,1846.669],[-6.504588,42.394123,1837.771],[-6.50403,42.394301,1833.093],[-6.502565,42.394487,1816.665],[-6.502029,42.394475,1816.521],[-6.501439,42.394523,1808.109],[-6.500811,42.394574,1802.89],[-6.500226,42.394737,1796.312],[-6.499416,42.395034,1788.882],[-6.498767,42.395386,1785.541],[-6.49874,42.395541,1781.113],[-6.498858,42.395517,1777.85],[-6.499963,42.395208,1774.828],[-6.500902,42.395216,1765.774],[-6.501551,42.395319,1761.836],[-6.502522,42.39547,1755.711],[-6.50344,42.395628,1746.321],[-6.504963,42.395632,1738.203],[-6.505483,42.395668,1733.109],[-6.505816,42.395802,1730.242],[-6.506036,42.396151,1736.124],[-6.505843,42.396638,1737.254],[-6.505542,42.396908,1737.723],[-6.505188,42.397122,1737.415],[-6.504716,42.397347,1735.482],[-6.504142,42.397708,1730.76],[-6.503869,42.398064,1727.896],[-6.503681,42.398421,1727.968],[-6.503418,42.39871,1722.648],[-6.503429,42.398968,1725.561],[-6.502935,42.399788,1730.817],[-6.502726,42.40014,1728.409],[-6.502887,42.400505,1727.255],[-6.503225,42.400853,1724.587],[-6.503568,42.401079,1723.787],[-6.503692,42.401245,1722.436],[-6.50382,42.401966,1718.628],[-6.503869,42.402382,1716.255],[-6.503842,42.402672,1714.463],[-6.503831,42.402854,1713.299],[-6.50418,42.403289,1715.521],[-6.504614,42.403551,1716.353],[-6.505199,42.403856,1709.804],[-6.506004,42.404133,1713.314],[-6.506701,42.404307,1707.909],[-6.507152,42.404359,1708.866],[-6.507554,42.404315,1714.638],[-6.507897,42.404363,1716.488],[-6.508117,42.404715,1710.997],[-6.508745,42.405254,1705.799],[-6.509373,42.405555,1705.936],[-6.509829,42.405718,1704.654],[-6.510333,42.405912,1706.28],[-6.510531,42.406205,1705.362],[-6.510816,42.406597,1706.711],[-6.511089,42.406961,1705.821],[-6.510977,42.407235,1704.303],[-6.510735,42.407294,1705.109],[-6.510381,42.407318,1706.712],[-6.509222,42.407294,1709.064],[-6.509029,42.407441,1712.984],[-6.509222,42.407635,1717.443],[-6.509775,42.407793,1719.075],[-6.510252,42.407963,1720.152],[-6.512436,42.409496,1733.06],[-6.513369,42.4103,1728.626],[-6.514163,42.411037,1724.378],[-6.514528,42.411489,1716.267],[-6.514753,42.411504,1715.481],[-6.5153,42.411378,1710.819],[-6.515622,42.411156,1712.509],[-6.51588,42.410879,1717.027],[-6.516073,42.410736,1716.859],[-6.516244,42.410839,1708.089],[-6.51589,42.411195,1704.178],[-6.515086,42.411908,1696.32],[-6.514603,42.41217,1691.127],[-6.514378,42.412265,1686.385],[-6.514539,42.412447,1681.511],[-6.514721,42.412392,1682.983],[-6.515558,42.412019,1682.952],[-6.516609,42.411346,1672.953],[-6.517489,42.411045,1667.308],[-6.517993,42.411005,1667.809],[-6.518615,42.411124,1664.246],[-6.51956,42.411235,1657.768],[-6.520311,42.411393,1654.418],[-6.520933,42.411726,1651.487],[-6.521716,42.412598,1637.689],[-6.521823,42.413104,1628.966],[-6.522317,42.413817,1625.694],[-6.522628,42.41415,1612.95],[-6.523218,42.414023,1611.872],[-6.524216,42.413437,1602.581],[-6.525096,42.412716,1601.061],[-6.525578,42.412392,1598.817],[-6.526812,42.411496,1590.709],[-6.527252,42.411172,1590.559],[-6.527821,42.410918,1598.271],[-6.527992,42.411061,1594.291],[-6.528186,42.412209,1572.16],[-6.528432,42.412891,1570.792],[-6.528658,42.413508,1563.249],[-6.528776,42.414768,1551.117],[-6.528389,42.41552,1546.993],[-6.528068,42.416051,1533.495],[-6.528089,42.416645,1539.274],[-6.528143,42.41716,1533.256],[-6.527939,42.417508,1529.321],[-6.527123,42.417659,1515.709],[-6.526791,42.417857,1513.978],[-6.526544,42.418269,1512.74],[-6.525632,42.419037,1492.92],[-6.52589,42.419568,1497.469],[-6.525922,42.420011,1494.231],[-6.525632,42.420415,1488.968],[-6.525493,42.420716,1484.796],[-6.526072,42.421437,1480.592],[-6.526362,42.421928,1472.124],[-6.526383,42.422379,1469.736],[-6.526088,42.422716,1473.117],[-6.525702,42.422954,1474.418],[-6.52472,42.423306,1478.409],[-6.521974,42.424229,1493.514],[-6.519892,42.424973,1497.536],[-6.519506,42.425215,1496.386],[-6.519334,42.425543,1498.655],[-6.519313,42.42588,1496.217],[-6.519485,42.426169,1498.724],[-6.519624,42.426375,1503.262],[-6.519522,42.426846,1501.088],[-6.519495,42.427238,1500.23],[-6.519865,42.427428,1500.627],[-6.52038,42.427488,1500.668],[-6.521426,42.427551,1504.514],[-6.522521,42.427812,1506.309],[-6.52288,42.428014,1510.193],[-6.522805,42.428331,1508.735],[-6.522607,42.428885,1506.215],[-6.522558,42.429372,1509.354],[-6.522537,42.430069,1510.576],[-6.522172,42.430592,1512.023],[-6.52177,42.430853,1509.261],[-6.521534,42.431166,1513.497],[-6.521169,42.431364,1509.729],[-6.519651,42.432389,1507.728],[-6.51942,42.432698,1506.889],[-6.518937,42.433102,1502.717],[-6.519012,42.433367,1505.809],[-6.519431,42.433637,1514.553],[-6.519667,42.433823,1516.455],[-6.519785,42.434048,1513.225],[-6.520037,42.434341,1515.754],[-6.52023,42.434587,1517.426],[-6.520112,42.434836,1512.333],[-6.519742,42.435204,1512.911],[-6.518894,42.435885,1503.977],[-6.518744,42.436178,1504.029],[-6.518691,42.436515,1502.112],[-6.518809,42.436855,1500.132],[-6.519179,42.437196,1501.605],[-6.519619,42.43777,1495.009],[-6.520134,42.438083,1493.882],[-6.520751,42.438479,1490.684],[-6.521491,42.438914,1492.384],[-6.521512,42.439559,1484.553],[-6.521577,42.44026,1480.035],[-6.521421,42.440727,1473.842],[-6.52104,42.44104,1468.86],[-6.520541,42.44121,1463.566],[-6.51957,42.441471,1456.598],[-6.516679,42.442053,1434.969],[-6.515778,42.44222,1424.204],[-6.515601,42.442386,1422.524],[-6.515611,42.442659,1423.209],[-6.516003,42.443015,1427.167],[-6.516352,42.443364,1424.319],[-6.516309,42.4437,1415.429],[-6.516175,42.44391,1407.578],[-6.516298,42.444524,1411.66],[-6.516126,42.444971,1401.547],[-6.516277,42.445236,1400.935],[-6.516792,42.445818,1403.191],[-6.516765,42.446333,1402.093],[-6.516545,42.446455,1395.326],[-6.516223,42.446709,1388.147],[-6.516041,42.447002,1387.811],[-6.515279,42.4475,1385.109],[-6.514817,42.447837,1372.853],[-6.514694,42.448324,1374.495],[-6.514587,42.448815,1373.035],[-6.514367,42.44921,1366.524],[-6.514453,42.449832,1351.386],[-6.514635,42.450798,1343.053],[-6.514699,42.452531,1325.661],[-6.514453,42.45379,1308.147],[-6.514249,42.454479,1298.429],[-6.514345,42.455136,1291.965],[-6.51441,42.455666,1286.968],[-6.514265,42.455884,1285.714],[-6.514018,42.455935,1283.509],[-6.513777,42.455919,1281.377],[-6.513487,42.45584,1280.859],[-6.513187,42.455725,1280.229],[-6.513026,42.455603,1281.298],[-6.512779,42.45546,1282.02],[-6.512492,42.455502,1278.097],[-6.512079,42.45564,1272.735],[-6.511749,42.455727,1271.861],[-6.511306,42.45586,1269.043],[-6.511221,42.455973,1266.562],[-6.51129,42.45606,1262.983],[-6.511459,42.456072,1260.311],[-6.511819,42.456084,1256.009],[-6.512154,42.456153,1253.747],[-6.512398,42.456277,1251.429],[-6.512626,42.456467,1245.999],[-6.513436,42.456853,1242.778],[-6.513857,42.45714,1232.77],[-6.514493,42.457762,1223.247],[-6.514909,42.458361,1211.225],[-6.515324,42.458741,1202.841],[-6.515762,42.459,1196.863],[-6.516311,42.45923,1189.369],[-6.516695,42.459273,1186.904],[-6.517038,42.459365,1182.224],[-6.517226,42.459742,1175.609],[-6.517358,42.460184,1166.077],[-6.517604,42.461064,1153.899],[-6.517712,42.461322,1155.049],[-6.518084,42.461573,1153.068],[-6.518565,42.461804,1145.48],[-6.518953,42.461986,1143.657],[-6.519219,42.462159,1142.055],[-6.519447,42.462343,1140.151],[-6.519876,42.462651,1137.653],[-6.520104,42.46277,1136.274],[-6.520461,42.462964,1134.156],[-6.52085,42.463257,1133.821],[-6.521016,42.463429,1131.509],[-6.521145,42.463708,1128.998],[-6.521139,42.463961,1127.21]]}},{"type":"Feature","properties":{"Name":"Etapa 5 — San Cristóbal de Valdueza–Ponferrada","etapa":5,"original_name":"ETAPA5-CAMINO DE LOS FALIFOS ORIENTAL-San Cristóbal de Valdueza - Ponferrada - Wikiloc","point_count":194,"length_km":12.625},"geometry":{"type":"LineString","coordinates":[[-6.521118,42.463935,1127.691],[-6.521228,42.464216,1125.581],[-6.521405,42.464501,1126.119],[-6.521646,42.464711,1126.009],[-6.52196,42.464968,1125.78],[-6.522153,42.46504,1124.692],[-6.522336,42.465192,1124.642],[-6.522564,42.465568,1124.621],[-6.522778,42.465946,1123.115],[-6.523014,42.466177,1120.13],[-6.523288,42.466403,1115.95],[-6.524334,42.46736,1108.451],[-6.524983,42.46795,1105.953],[-6.525868,42.46884,1109.293],[-6.526662,42.469624,1107.665],[-6.527585,42.470585,1105.521],[-6.527756,42.470902,1104.409],[-6.528293,42.473047,1100.85],[-6.528615,42.473949,1095.742],[-6.529087,42.474946,1084.972],[-6.529591,42.475919,1073.771],[-6.53002,42.476782,1065.015],[-6.530374,42.47751,1056.44],[-6.530514,42.477937,1051.23],[-6.530557,42.478586,1039.321],[-6.530653,42.479591,1027.193],[-6.530857,42.480912,1025.234],[-6.531415,42.482257,1020.955],[-6.53163,42.482471,1020.91],[-6.532338,42.483017,1020.209],[-6.532729,42.483555,1020.224],[-6.533062,42.484208,1012.856],[-6.533341,42.485205,999.056],[-6.53347,42.486008,993.335],[-6.533319,42.48727,980.739],[-6.533073,42.488132,975.534],[-6.532794,42.489089,970.744],[-6.532955,42.489683,971.195],[-6.533282,42.490426,972.067],[-6.533813,42.491304,965.662],[-6.534253,42.492095,957.883],[-6.53458,42.492776,954.711],[-6.53473,42.493247,950.909],[-6.535513,42.494046,946.797],[-6.535943,42.494793,944.419],[-6.536248,42.495469,935.569],[-6.536795,42.49609,931.278],[-6.53723,42.496569,928.162],[-6.537793,42.496937,924.497],[-6.538619,42.497317,921.447],[-6.538523,42.4974,921.928],[-6.538276,42.497376,922.73],[-6.537616,42.497487,919.754],[-6.537364,42.497827,911.556],[-6.537353,42.498313,900.911],[-6.53745,42.498776,889.509],[-6.538196,42.499397,874.346],[-6.539226,42.500152,858.818],[-6.539601,42.500402,854.138],[-6.540111,42.500789,849.837],[-6.540846,42.500912,844.411],[-6.541495,42.501201,835.776],[-6.541709,42.501248,833.026],[-6.542219,42.501497,824.337],[-6.542691,42.501711,816.049],[-6.543463,42.502169,805.524],[-6.543995,42.50266,795.204],[-6.54437,42.502818,792.414],[-6.545191,42.502889,784.209],[-6.545781,42.503067,772.633],[-6.546505,42.50353,761.265],[-6.546698,42.503775,756.885],[-6.54687,42.504032,750.864],[-6.547004,42.504321,745.848],[-6.54702,42.504515,742.263],[-6.546929,42.504511,740.893],[-6.546806,42.504471,738.924],[-6.54628,42.504262,734.076],[-6.545802,42.504163,729.292],[-6.546113,42.50478,709.973],[-6.546628,42.505302,705.62],[-6.547261,42.506441,686.109],[-6.547594,42.507097,672.85],[-6.54797,42.507817,652.392],[-6.548667,42.508323,650.032],[-6.549096,42.508663,642.461],[-6.549512,42.508796,640.215],[-6.549764,42.508839,638.79],[-6.550123,42.508778,638.45],[-6.550772,42.508632,635.811],[-6.551601,42.508543,632.453],[-6.551982,42.508554,627.594],[-6.552189,42.508675,624.557],[-6.552339,42.508861,622.922],[-6.552173,42.509183,620.609],[-6.552138,42.509468,617.17],[-6.552352,42.509715,614.742],[-6.552588,42.50995,612.372],[-6.552838,42.510176,608.951],[-6.552878,42.510411,606.825],[-6.552902,42.510605,606.38],[-6.553428,42.510745,605.25],[-6.554187,42.511026,601.051],[-6.554444,42.51121,600.683],[-6.55464,42.511332,600.141],[-6.554876,42.511392,600.881],[-6.555037,42.511558,602.909],[-6.556064,42.512558,611.009],[-6.556625,42.512916,617.865],[-6.557183,42.513515,623.247],[-6.557325,42.514017,622.657],[-6.55755,42.514259,621.216],[-6.558001,42.514618,621.13],[-6.558768,42.515504,621.485],[-6.559085,42.515749,618.695],[-6.559229,42.515975,616.136],[-6.559262,42.516465,612.318],[-6.559305,42.51686,608.433],[-6.5596,42.517323,605.923],[-6.560168,42.517774,602.215],[-6.56063,42.518304,598.109],[-6.561348,42.519197,598.674],[-6.561402,42.519727,599.646],[-6.561799,42.520462,600.776],[-6.56211,42.521221,605.435],[-6.562014,42.52172,608.659],[-6.562003,42.521878,607.414],[-6.562169,42.522182,607.454],[-6.562684,42.52285,602.235],[-6.56269,42.523163,599.927],[-6.56284,42.523507,596.712],[-6.563146,42.523942,596.332],[-6.563457,42.524293,596.405],[-6.564122,42.525005,595.409],[-6.564406,42.525183,594.862],[-6.56491,42.525503,592.594],[-6.565238,42.525804,590.544],[-6.565431,42.526401,585.943],[-6.565586,42.527092,585.487],[-6.565694,42.52801,588.292],[-6.565592,42.528409,589.192],[-6.565484,42.528939,587.663],[-6.565447,42.529267,586.995],[-6.565667,42.529619,587.457],[-6.566026,42.529986,587.5],[-6.56637,42.530291,587.52],[-6.566799,42.530623,585.809],[-6.56734,42.530895,586.666],[-6.567459,42.531026,585.858],[-6.567351,42.531318,583.948],[-6.567078,42.531793,576.177],[-6.567314,42.532204,571.041],[-6.567378,42.532686,563.326],[-6.567614,42.53335,552.696],[-6.568322,42.534402,537.647],[-6.568226,42.535042,528.519],[-6.569921,42.535311,525.184],[-6.571058,42.535461,523.207],[-6.572013,42.535469,522.417],[-6.573139,42.535398,525.009],[-6.574609,42.535303,521.179],[-6.577613,42.535374,521.361],[-6.580607,42.535477,515.721],[-6.581283,42.535493,513.87],[-6.581744,42.535184,510.974],[-6.582463,42.534837,509.439],[-6.583235,42.534663,511.059],[-6.583418,42.534655,511.32],[-6.5839,42.534892,512.952],[-6.585134,42.535097,517.932],[-6.585832,42.535358,516.392],[-6.58655,42.535912,517.411],[-6.58713,42.536331,514.909],[-6.58801,42.536766,513.254],[-6.588664,42.537295,511.246],[-6.589372,42.537904,512.416],[-6.589715,42.538307,508.495],[-6.589222,42.539019,505.689],[-6.589372,42.539382,507.684],[-6.590284,42.539556,504.744],[-6.590917,42.539856,505.975],[-6.591668,42.540489,512.557],[-6.591792,42.540679,513.483],[-6.592076,42.540813,516.725],[-6.592301,42.540983,519.517],[-6.592553,42.541165,522.609],[-6.592671,42.541214,523.949],[-6.592899,42.541254,525.491],[-6.59291,42.543009,532.211],[-6.593401,42.543003,533.01],[-6.593251,42.543228,534.054],[-6.592843,42.543623,535.759],[-6.592639,42.543848,536.279],[-6.592628,42.544137,539.53]]}}]}