{"type":"FeatureCollection","features":[{"type":"Feature","properties":{"Name":"Camino Castellano Lebaniego, Completo - Wikiloc","creator":"Wikiloc - https://www.wikiloc.com","segment_count":1,"point_count":476,"length_km":208.587,"start_time":"2023-06-22T04:16:54Z","end_time":"2023-06-28T08:16:15Z"},"geometry":{"type":"LineString","coordinates":[[-4.535391,42.008449,738.517],[-4.539213,42.008366,739.087],[-4.550902,42.001815,740.215],[-4.555521,42.003087,745.209],[-4.569694,42.01804,747.712],[-4.57569,42.023221,747.754],[-4.58059,42.029402,745.43],[-4.583197,42.030816,749.461],[-4.586331,42.040544,750.235],[-4.578655,42.050875,750.22],[-4.579215,42.051319,750.554],[-4.578454,42.052534,753.285],[-4.587966,42.070165,754.423],[-4.588129,42.071788,761.541],[-4.576889,42.081981,760.481],[-4.572087,42.083883,760.509],[-4.568446,42.088866,760.209],[-4.566277,42.0895,759.035],[-4.561513,42.088526,758.757],[-4.558349,42.089775,758.483],[-4.556234,42.095218,757.544],[-4.554405,42.097043,758.038],[-4.554677,42.098504,758.053],[-4.55224,42.102546,757.467],[-4.552278,42.104579,757.298],[-4.551261,42.105617,756.586],[-4.553276,42.106699,756.277],[-4.55472,42.108478,756.761],[-4.555518,42.11205,757.227],[-4.552739,42.117991,754.009],[-4.55341,42.127526,756.298],[-4.53778,42.155545,754.71],[-4.536073,42.156533,754.546],[-4.536355,42.157984,754.247],[-4.533293,42.16364,752.721],[-4.531357,42.163141,751.756],[-4.531521,42.165236,767.52],[-4.52691,42.166404,770.481],[-4.511784,42.167479,773.579],[-4.508032,42.169503,764.759],[-4.507761,42.170628,760.203],[-4.509317,42.176927,760.523],[-4.508787,42.180998,760.509],[-4.50254,42.188476,759.716],[-4.496532,42.19167,763.718],[-4.497393,42.192825,762.534],[-4.501953,42.194713,762.435],[-4.501488,42.196677,758.779],[-4.498378,42.200811,761.054],[-4.498499,42.202486,766.238],[-4.497591,42.204559,767.039],[-4.496687,42.20525,765.767],[-4.49588,42.204644,763.541],[-4.49466,42.205259,739.781],[-4.491219,42.203668,735.409],[-4.490047,42.201585,731.409],[-4.482628,42.195357,736.245],[-4.476874,42.201195,736.047],[-4.441722,42.220504,735.563],[-4.436396,42.224688,733.714],[-4.435156,42.227761,733.768],[-4.431859,42.23165,733.573],[-4.435329,42.240231,733.437],[-4.41522,42.251378,734.788],[-4.398266,42.264229,748.766],[-4.399943,42.263315,740.017],[-4.399789,42.26647,741.087],[-4.397333,42.267367,743.715],[-4.377768,42.281338,756.509],[-4.346871,42.304804,747.262],[-4.343881,42.306197,747.224],[-4.33769,42.306009,749.56],[-4.337727,42.312216,744.571],[-4.332495,42.317193,746.455],[-4.330183,42.322033,744.73],[-4.328076,42.323919,744.284],[-4.326442,42.329557,742.735],[-4.341098,42.343136,744.233],[-4.345465,42.346076,744.535],[-4.346288,42.347823,743.286],[-4.350699,42.351843,742.214],[-4.354171,42.359578,740.509],[-4.362664,42.36523,742.274],[-4.366669,42.369386,740.776],[-4.35985,42.375848,738.572],[-4.362381,42.38534,739.733],[-4.360698,42.389253,742.717],[-4.349783,42.396153,756.572],[-4.35105,42.396917,757.056],[-4.350171,42.398332,754.417],[-4.352299,42.399662,757.245],[-4.35684,42.406756,757.456],[-4.352542,42.413683,747.459],[-4.352854,42.414306,750.214],[-4.35159,42.416986,750.709],[-4.353996,42.411986,758.066],[-4.346481,42.412379,758.258],[-4.328653,42.411581,754.474],[-4.323132,42.412477,753.415],[-4.315657,42.409566,752.019],[-4.310961,42.409754,752.464],[-4.301902,42.406129,751.288],[-4.298705,42.407492,749.529],[-4.298142,42.40685,748.517],[-4.295156,42.408706,758.055],[-4.282381,42.408965,760.007],[-4.279224,42.410748,757.717],[-4.275042,42.421268,757.009],[-4.274969,42.425013,758.056],[-4.269635,42.432436,757.218],[-4.262573,42.452808,757.564],[-4.260066,42.478491,760.525],[-4.260729,42.485516,766.539],[-4.264162,42.488759,767.044],[-4.266099,42.495108,766.788],[-4.266464,42.500659,765.579],[-4.27248,42.511236,771.487],[-4.274741,42.517823,769.449],[-4.290331,42.537388,773.202],[-4.297145,42.542164,775.222],[-4.308679,42.554156,777.709],[-4.319577,42.575834,781.715],[-4.323041,42.578351,782.767],[-4.324375,42.58021,780.063],[-4.326681,42.587475,785.774],[-4.328933,42.588215,786.018],[-4.331357,42.590702,787.523],[-4.330741,42.594042,796.447],[-4.329146,42.596374,804.058],[-4.330149,42.596497,799.276],[-4.330763,42.598071,792.512],[-4.32855,42.601704,790.232],[-4.325865,42.602722,790.005],[-4.324905,42.604395,789.509],[-4.321941,42.605519,789.712],[-4.31487,42.605835,793.774],[-4.314728,42.611419,794.22],[-4.315793,42.614227,793.081],[-4.313272,42.622843,795.775],[-4.313338,42.625735,797.07],[-4.308332,42.631419,799.754],[-4.30626,42.635678,799.265],[-4.306984,42.638371,800.213],[-4.306469,42.643087,802.785],[-4.31021,42.654276,802.289],[-4.310316,42.657859,800.717],[-4.309885,42.658723,801.709],[-4.308929,42.658691,800.559],[-4.313392,42.661967,801.421],[-4.314408,42.66473,809.097],[-4.315906,42.66537,818.078],[-4.319551,42.664734,834.722],[-4.327599,42.660717,820.277],[-4.331223,42.666426,826.531],[-4.333261,42.666229,822.522],[-4.331987,42.667373,824.53],[-4.332624,42.668136,825.586],[-4.340994,42.672942,832.46],[-4.345203,42.674037,841.526],[-4.346623,42.678817,853.709],[-4.370855,42.681917,846.249],[-4.374522,42.686192,847.281],[-4.380713,42.6985,863.777],[-4.380878,42.700936,865.248],[-4.382189,42.702178,863.742],[-4.381759,42.702395,863.587],[-4.383064,42.705066,866.721],[-4.387555,42.709931,872.022],[-4.383268,42.714122,878.79],[-4.382759,42.717375,884.731],[-4.379101,42.71969,890.461],[-4.378102,42.725635,905.507],[-4.37462,42.728067,908.209],[-4.374462,42.729486,912.714],[-4.378483,42.731133,921.786],[-4.377963,42.732384,937.422],[-4.379532,42.733911,953.783],[-4.382793,42.74136,976.017],[-4.386725,42.746097,993.442],[-4.389065,42.747243,988.436],[-4.390546,42.74941,967.017],[-4.3928,42.750888,951.755],[-4.392383,42.75176,944.583],[-4.394161,42.752617,931.425],[-4.394314,42.753201,923.217],[-4.392259,42.754304,923.209],[-4.392779,42.755391,922.279],[-4.393511,42.755323,919.761],[-4.392727,42.755942,922.537],[-4.393314,42.760827,935.778],[-4.396455,42.762763,954.452],[-4.397326,42.764583,969.757],[-4.402375,42.765204,927.481],[-4.408176,42.763735,909.012],[-4.412349,42.767139,922.28],[-4.416488,42.766527,907.725],[-4.417335,42.774445,916.026],[-4.419921,42.778015,923.708],[-4.420786,42.785515,916.409],[-4.423046,42.783406,919.073],[-4.426215,42.783851,917.545],[-4.428238,42.784814,922.251],[-4.429662,42.786818,930.712],[-4.43379,42.788021,966.496],[-4.438644,42.78697,979.571],[-4.442038,42.78767,989.085],[-4.442519,42.791326,999.516],[-4.438046,42.797442,994.734],[-4.44173,42.799439,1008.524],[-4.445403,42.803463,1035.804],[-4.447065,42.803881,1036.814],[-4.448736,42.803403,1037.509],[-4.449594,42.804165,1031.153],[-4.451684,42.804304,1024.855],[-4.45223,42.806622,1024.591],[-4.456606,42.810366,1033.022],[-4.4613,42.810928,1057.816],[-4.462555,42.81206,1044.121],[-4.464846,42.812585,1047.515],[-4.466262,42.814443,1058.156],[-4.465711,42.814994,1064.514],[-4.473808,42.813185,1047.456],[-4.481757,42.813008,994.759],[-4.487586,42.816689,975.514],[-4.492964,42.815744,1019.709],[-4.500093,42.817917,993.776],[-4.505799,42.818587,982.078],[-4.503184,42.821648,974.484],[-4.50059,42.823458,969.015],[-4.502478,42.824658,979.549],[-4.502679,42.825744,986.034],[-4.5005,42.8295,987.428],[-4.500244,42.831496,990.219],[-4.495822,42.836431,968.787],[-4.497592,42.84151,943.561],[-4.498901,42.842314,935.221],[-4.502515,42.84866,923.513],[-4.501976,42.850451,918.009],[-4.499583,42.85332,911.277],[-4.49905,42.856372,911.069],[-4.500196,42.859294,903.095],[-4.498029,42.862984,902.416],[-4.497849,42.864769,902.53],[-4.499228,42.869202,907.065],[-4.502772,42.872056,905.769],[-4.509156,42.875034,907.52],[-4.510057,42.878868,913.018],[-4.513563,42.882949,917.774],[-4.514148,42.885494,918.756],[-4.513313,42.886135,918.021],[-4.511627,42.886054,918.009],[-4.511349,42.888273,930.498],[-4.51209,42.889826,943.44],[-4.51132,42.890976,948.546],[-4.511627,42.892592,957.437],[-4.510983,42.893022,963.011],[-4.514206,42.896714,981.446],[-4.511759,42.899634,993.26],[-4.511805,42.901432,1017.461],[-4.51101,42.901651,1025.519],[-4.5117,42.903631,1054.157],[-4.508716,42.906889,1043.1],[-4.509788,42.910188,990.52],[-4.507958,42.909962,980.509],[-4.5075,42.908751,986.056],[-4.507629,42.910721,986.478],[-4.499385,42.910858,982.774],[-4.497,42.911938,978.255],[-4.495678,42.913419,974.219],[-4.495831,42.912931,977.724],[-4.49437,42.912262,993.568],[-4.48957,42.911436,997.279],[-4.488807,42.913214,1002.527],[-4.487615,42.911842,1010.545],[-4.486033,42.916932,1018.247],[-4.481777,42.91795,988.411],[-4.480922,42.919326,982.509],[-4.476887,42.920683,980.075],[-4.475101,42.922464,980.287],[-4.471887,42.923488,979.283],[-4.472335,42.924446,982.594],[-4.474232,42.924732,986.278],[-4.473689,42.926067,996.513],[-4.474886,42.927787,1018.767],[-4.476667,42.928693,1030.098],[-4.477255,42.931406,1070.416],[-4.47541,42.932408,1085.485],[-4.474906,42.934737,1100.189],[-4.477363,42.937936,1120.117],[-4.478124,42.940614,1132.109],[-4.475885,42.943541,1140.119],[-4.476092,42.944194,1137.811],[-4.472175,42.945292,1155.587],[-4.475212,42.947371,1183.418],[-4.475879,42.948691,1170.482],[-4.474641,42.949219,1153.817],[-4.477677,42.950173,1142.121],[-4.482907,42.955052,1052.472],[-4.48365,42.956562,1035.17],[-4.485639,42.957627,1032.472],[-4.487619,42.96319,996.013],[-4.493296,42.969267,1004.014],[-4.494894,42.968625,1000.409],[-4.495831,42.968958,1002.418],[-4.496026,42.968163,1006.72],[-4.497314,42.969547,1014.486],[-4.503787,42.971307,1038.527],[-4.505231,42.973892,1053.431],[-4.507236,42.97484,1066.176],[-4.508426,42.977445,1083.16],[-4.510615,42.978005,1092.131],[-4.509802,42.978167,1089.539],[-4.511674,42.978691,1109.547],[-4.514713,42.98143,1151.829],[-4.516031,42.987306,1064.521],[-4.516208,42.986674,1071.409],[-4.516961,42.987756,1065.025],[-4.519812,42.988351,1058.577],[-4.526578,42.992271,1079.053],[-4.529655,42.996349,1084.144],[-4.529026,42.997331,1093.198],[-4.5282,42.997308,1099.113],[-4.52709,43.000582,1118.017],[-4.52372,43.003759,1188.598],[-4.523377,43.005376,1222.056],[-4.516599,43.008707,1251.881],[-4.517558,43.009156,1227.861],[-4.516651,43.009874,1208.017],[-4.517565,43.010688,1188.409],[-4.517232,43.011503,1186.049],[-4.512929,43.015259,1156.811],[-4.510502,43.01838,1141.487],[-4.512853,43.022428,1114.418],[-4.511907,43.023129,1123.482],[-4.50887,43.02359,1117.487],[-4.506521,43.019668,1095.171],[-4.505403,43.020492,1098.032],[-4.503282,43.020695,1123.14],[-4.50308,43.023656,1163.516],[-4.501754,43.024908,1191.876],[-4.501011,43.024802,1199.413],[-4.494137,43.021561,1198.109],[-4.490607,43.014318,1136.812],[-4.489475,43.015055,1121.184],[-4.489486,43.015808,1113.49],[-4.488526,43.014816,1100.581],[-4.486557,43.015069,1089.565],[-4.481504,43.017869,1117.07],[-4.478813,43.02307,1111.544],[-4.479155,43.025781,1114.075],[-4.480743,43.027054,1118.843],[-4.481223,43.0303,1139.889],[-4.482606,43.032018,1140.406],[-4.481966,43.033478,1159.826],[-4.479502,43.03439,1169.409],[-4.479058,43.03668,1201.819],[-4.479883,43.037275,1221.541],[-4.479255,43.038276,1238.427],[-4.477298,43.039135,1288.088],[-4.475582,43.040975,1343.862],[-4.472896,43.041932,1321.547],[-4.466766,43.041455,1296.461],[-4.463313,43.040215,1290.062],[-4.458558,43.041651,1245.47],[-4.462758,43.041338,1211.844],[-4.464479,43.042625,1197.005],[-4.469161,43.043755,1170.015],[-4.470575,43.045606,1143.809],[-4.472272,43.045267,1129.845],[-4.470543,43.046408,1109.567],[-4.468779,43.045324,1094.033],[-4.465942,43.045119,1064.484],[-4.467016,43.04633,1043.198],[-4.46859,43.046687,1030.833],[-4.467632,43.047086,1023.257],[-4.471473,43.048488,982.778],[-4.473529,43.050129,947.276],[-4.473663,43.050666,937.046],[-4.471039,43.051071,892.088],[-4.471399,43.051786,871.016],[-4.478007,43.053842,813.509],[-4.48053,43.055831,799.425],[-4.481318,43.057829,782.097],[-4.488762,43.06237,727.293],[-4.49027,43.064646,707.084],[-4.492458,43.064885,711.058],[-4.494677,43.066472,713.543],[-4.496526,43.066152,712.067],[-4.498863,43.067541,692.028],[-4.498729,43.068913,682.776],[-4.501616,43.070765,663.734],[-4.497645,43.06962,635.255],[-4.497482,43.070418,629.21],[-4.501078,43.072969,597.209],[-4.501634,43.074139,596.044],[-4.506431,43.076239,597.526],[-4.512244,43.075774,603.452],[-4.516114,43.078693,580.473],[-4.522839,43.077712,556.057],[-4.523565,43.075906,546.582],[-4.527091,43.074206,530.436],[-4.529761,43.074289,521.437],[-4.530365,43.075048,517.075],[-4.532039,43.074461,509.015],[-4.532868,43.075841,499.765],[-4.534046,43.075029,493.711],[-4.54148,43.075667,476.009],[-4.552952,43.080076,445.312],[-4.555337,43.079789,426.764],[-4.555176,43.079127,425.32],[-4.555641,43.079201,429.321],[-4.558613,43.081156,463.025],[-4.561473,43.081825,483.38],[-4.56357,43.083617,516.064],[-4.564026,43.083031,531.485],[-4.565164,43.083226,537.443],[-4.565993,43.083905,541.464],[-4.565982,43.086041,554.006],[-4.566858,43.087289,562.516],[-4.568759,43.087179,574.209],[-4.573426,43.089399,598.067],[-4.572255,43.091071,612.529],[-4.582663,43.090435,604.735],[-4.57898,43.092634,585.066],[-4.578387,43.095342,588.78],[-4.573825,43.096627,594.265],[-4.572791,43.09836,584.089],[-4.574244,43.09992,590.24],[-4.577671,43.100432,591.528],[-4.5782,43.101838,593.098],[-4.579458,43.10232,591.515],[-4.581836,43.102857,608.726],[-4.584232,43.102001,607.509],[-4.585724,43.103134,603.55],[-4.586875,43.10259,598.542],[-4.587999,43.103422,605.088],[-4.587232,43.105883,621.469],[-4.588002,43.106793,629.243],[-4.589845,43.10701,623.528],[-4.583983,43.109837,628.712],[-4.579342,43.110033,622.413],[-4.581953,43.113423,589.511],[-4.57975,43.115635,576.516],[-4.579555,43.117843,538.476],[-4.581827,43.117529,498.313],[-4.580833,43.12015,492.209],[-4.578403,43.122059,505.762],[-4.578178,43.123866,507.774],[-4.577208,43.124998,511.23],[-4.581462,43.128772,510.041],[-4.587801,43.128551,483.755],[-4.581678,43.130345,425.07],[-4.582667,43.130606,409.244],[-4.582531,43.131526,402.245],[-4.580844,43.132627,375.023],[-4.576164,43.132084,297.325],[-4.575812,43.132724,287.026],[-4.582945,43.137912,274.308],[-4.589566,43.140407,287.709],[-4.590124,43.142961,283.773],[-4.592872,43.144372,274.715],[-4.592957,43.146756,267.721],[-4.610232,43.155979,227.862],[-4.611771,43.15825,242.656],[-4.614661,43.157684,237.371],[-4.61609,43.155986,237.645],[-4.620438,43.155059,224.096],[-4.622982,43.153546,221.064],[-4.624546,43.154225,219.097],[-4.634693,43.153372,247.323],[-4.641824,43.154874,285.625],[-4.644549,43.153635,312.309],[-4.646151,43.15408,327.67],[-4.645728,43.153713,336.232],[-4.651458,43.150499,402.328],[-4.653888,43.150206,420.629]]}}]}