{
"type": "FeatureCollection",
"name": "mondonhedo",
"crs": { "type": "name", "properties": { "name": "urn:ogc:def:crs:OGC:1.3:CRS84" } },
"features": [
{ "type": "Feature", "properties": { "name": "Basílica de San Martiño - Fonte viloalle - Puente San Lázaro...", "cmt": null, "desc": null, "src": null, "link1_href": null, "link1_text": null, "link1_type": null, "link2_href": null, "link2_text": null, "link2_type": null, "number": null, "type": null }, "geometry": { "type": "MultiLineString", "coordinates": [ [ [ -7.302926, 43.561331, 71.879 ], [ -7.30284, 43.560662, 68.905 ], [ -7.302775, 43.559683, 59.525 ], [ -7.304556, 43.558236, 59.009 ], [ -7.304878, 43.556806, 56.649 ], [ -7.305307, 43.555577, 63.071 ], [ -7.305822, 43.554582, 60.593 ], [ -7.308054, 43.553773, 63.196 ], [ -7.309427, 43.552156, 72.651 ], [ -7.309813, 43.551021, 74.355 ], [ -7.310157, 43.550243, 75.616 ], [ -7.310371, 43.548844, 71.686 ], [ -7.311144, 43.547739, 69.128 ], [ -7.311187, 43.546775, 71.649 ], [ -7.310972, 43.545391, 81.702 ], [ -7.311316, 43.545049, 78.422 ], [ -7.311981, 43.544567, 77.009 ], [ -7.312839, 43.543602, 96.256 ], [ -7.313998, 43.543073, 98.968 ], [ -7.313912, 43.541627, 110.36 ], [ -7.314813, 43.540725, 110.583 ], [ -7.315199, 43.54032, 110.658 ], [ -7.316873, 43.54074, 121.112 ], [ -7.318847, 43.539387, 141.723 ], [ -7.319856, 43.53892, 152.413 ], [ -7.321959, 43.538485, 165.395 ], [ -7.32286, 43.537474, 175.152 ], [ -7.322795, 43.536369, 183.853 ], [ -7.322881, 43.534907, 199.908 ], [ -7.323246, 43.533834, 216.809 ], [ -7.324255, 43.533523, 218.627 ], [ -7.325306, 43.533398, 222.279 ], [ -7.325864, 43.532185, 221.871 ], [ -7.32537, 43.531516, 219.614 ], [ -7.325177, 43.530209, 204.259 ], [ -7.326336, 43.529556, 210.053 ], [ -7.327495, 43.528902, 217.754 ], [ -7.328696, 43.528389, 211.394 ], [ -7.330778, 43.527222, 222.896 ], [ -7.331614, 43.526958, 230.666 ], [ -7.333589, 43.525557, 242.429 ], [ -7.335305, 43.524437, 271.021 ], [ -7.336915, 43.522726, 290.909 ], [ -7.337387, 43.521341, 309.118 ], [ -7.337172, 43.520905, 306.24 ], [ -7.336764, 43.520003, 289.462 ], [ -7.337859, 43.519396, 265.825 ], [ -7.338288, 43.518711, 248.52 ], [ -7.337987, 43.517996, 235.544 ], [ -7.339554, 43.51742, 210.485 ], [ -7.339211, 43.51686, 199.215 ], [ -7.341378, 43.516953, 174.337 ], [ -7.341957, 43.51644, 157.755 ], [ -7.343588, 43.515802, 142.707 ], [ -7.34406, 43.51465, 135.417 ], [ -7.343867, 43.513016, 131.109 ], [ -7.34391, 43.512191, 130.757 ], [ -7.345562, 43.510962, 118.069 ], [ -7.347622, 43.509717, 126.011 ], [ -7.347364, 43.508099, 139.424 ], [ -7.345133, 43.507663, 152.239 ], [ -7.343073, 43.505982, 181.393 ], [ -7.341099, 43.505173, 178.024 ], [ -7.340069, 43.504114, 165.394 ], [ -7.338266, 43.503803, 152.076 ], [ -7.339125, 43.502247, 135.812 ], [ -7.337837, 43.500566, 142.732 ], [ -7.338781, 43.499445, 123.805 ], [ -7.335863, 43.499134, 145.109 ], [ -7.337837, 43.497826, 161.223 ], [ -7.339468, 43.49739, 181.935 ], [ -7.33788, 43.496628, 195.657 ], [ -7.336271, 43.496814, 196.42 ], [ -7.335734, 43.496659, 199.075 ], [ -7.336936, 43.495694, 218.019 ], [ -7.336915, 43.494511, 205.39 ], [ -7.336121, 43.494122, 194.05 ], [ -7.335005, 43.492222, 180.992 ], [ -7.334275, 43.491646, 176.453 ], [ -7.332602, 43.491755, 173.804 ], [ -7.330971, 43.49244, 164.114 ], [ -7.329104, 43.49244, 142.109 ], [ -7.32964, 43.491693, 128.387 ], [ -7.329061, 43.491133, 118.839 ], [ -7.32904, 43.490821, 115.791 ], [ -7.327688, 43.490105, 105.594 ], [ -7.326229, 43.489467, 106.549 ], [ -7.32507, 43.488953, 91.373 ], [ -7.325478, 43.488346, 87.534 ], [ -7.326701, 43.487614, 78.424 ], [ -7.328074, 43.486494, 63.326 ], [ -7.329834, 43.485668, 61.243 ], [ -7.32964, 43.484968, 52.964 ], [ -7.330821, 43.483209, 51.61 ], [ -7.332001, 43.482695, 55.409 ], [ -7.331142, 43.481449, 64.596 ], [ -7.330542, 43.480017, 49.098 ], [ -7.332516, 43.478833, 57.79 ], [ -7.334232, 43.477837, 61.083 ], [ -7.335606, 43.476654, 56.628 ], [ -7.335992, 43.476513, 56.952 ], [ -7.336078, 43.475968, 50.383 ], [ -7.336593, 43.474567, 78.343 ], [ -7.337108, 43.474832, 91.025 ], [ -7.337902, 43.474147, 93.999 ], [ -7.338567, 43.473306, 94.307 ], [ -7.340305, 43.472434, 87.327 ], [ -7.34112, 43.471951, 80.409 ], [ -7.342343, 43.471764, 83.551 ], [ -7.343309, 43.471484, 76.843 ], [ -7.343974, 43.471344, 80.515 ], [ -7.345026, 43.470472, 95.028 ], [ -7.345841, 43.469818, 90.763 ], [ -7.345819, 43.468447, 82.417 ], [ -7.346613, 43.467731, 84.338 ], [ -7.348781, 43.468432, 83.048 ], [ -7.351377, 43.467746, 71.72 ], [ -7.353888, 43.466781, 65.611 ], [ -7.356226, 43.465769, 58.221 ], [ -7.357686, 43.463993, 62.003 ], [ -7.359295, 43.462264, 70.509 ], [ -7.36011, 43.461517, 69.563 ], [ -7.360947, 43.46066, 65.495 ], [ -7.361741, 43.459913, 62.017 ], [ -7.362556, 43.459632, 70.61 ], [ -7.362127, 43.458931, 87.965 ], [ -7.360668, 43.458526, 68.559 ], [ -7.360518, 43.457654, 79.99 ], [ -7.361591, 43.456159, 94.62 ], [ -7.361677, 43.454757, 90.652 ], [ -7.361462, 43.453994, 78.272 ], [ -7.35996, 43.452732, 83.113 ], [ -7.358909, 43.451953, 75.314 ], [ -7.358372, 43.451423, 78.309 ], [ -7.358758, 43.44985, 93.729 ], [ -7.357557, 43.44837, 100.931 ], [ -7.357922, 43.447015, 95.563 ], [ -7.358329, 43.445628, 88.286 ], [ -7.358265, 43.444678, 89.631 ], [ -7.357643, 43.44351, 84.935 ], [ -7.356441, 43.443588, 86.286 ], [ -7.355926, 43.442045, 88.396 ], [ -7.355196, 43.440596, 85.738 ], [ -7.355261, 43.439739, 87.085 ], [ -7.357707, 43.438773, 93.689 ], [ -7.35893, 43.436904, 97.417 ], [ -7.359896, 43.435595, 105.609 ], [ -7.359982, 43.435346, 106.15 ] ] ] } }
]
}
