{"type":"FeatureCollection","features":[{"type":"Feature","properties":{"Name":"Hartlepool"},"geometry":{"type":"Point","coordinates":[-1.212926,54.691745]}},{"type":"Feature","properties":{"Name":"Newcastle upon Tyne"},"geometry":{"type":"Point","coordinates":[-1.61778,54.978252]}},{"type":"Feature","properties":{"Name":"Kingston Upon Hull"},"geometry":{"type":"Point","coordinates":[-0.3273025,53.7674909]}},{"type":"Feature","properties":{"Name":"Saltfleet"},"geometry":{"type":"Point","coordinates":[0.181965,53.422251]}},{"type":"Feature","properties":{"Name":"King's Lynn"},"geometry":{"type":"Point","coordinates":[0.4022963,52.7516798]}},{"type":"Feature","properties":{"Name":"Wells"},"geometry":{"type":"Point","coordinates":[0.846709,52.95775]}},{"type":"Feature","properties":{"Name":"Blakeney"},"geometry":{"type":"Point","coordinates":[1.0144362,52.9536087]}},{"type":"Feature","properties":{"Name":"Cley next the Sea"},"geometry":{"type":"Point","coordinates":[1.042659,52.95308]}},{"type":"Feature","properties":{"Name":"Cromer"},"geometry":{"type":"Point","coordinates":[1.2989515,52.9312819]}},{"type":"Feature","properties":{"Name":"Great Yarmouth"},"geometry":{"type":"Point","coordinates":[1.728047,52.598233]}},{"type":"Feature","properties":{"Name":"Southwold"},"geometry":{"type":"Point","coordinates":[1.680181,52.325628]}},{"type":"Feature","properties":{"Name":"Woodbridge"},"geometry":{"type":"Point","coordinates":[1.312571,52.095481]}},{"type":"Feature","properties":{"Name":"Ipswich"},"geometry":{"type":"Point","coordinates":[1.1480867,52.0596687]}},{"type":"Feature","properties":{"Name":"Harwich"},"geometry":{"type":"Point","coordinates":[1.260297,51.934731]}},{"type":"Feature","properties":{"Name":"Colchester"},"geometry":{"type":"Point","coordinates":[0.891874,51.895927]}},{"type":"Feature","properties":{"Name":"Landguard Fort"},"geometry":{"type":"Point","coordinates":[1.3210488,51.9389763]}},{"type":"Feature","properties":{"Name":"Billingsgate Market"},"geometry":{"type":"Point","coordinates":[-0.0128097,51.506235]}},{"type":"Feature","properties":{"Name":"Westminster Millennium Pier"},"geometry":{"type":"Point","coordinates":[-0.1235908,51.5015009]}},{"type":"Feature","properties":{"Name":"Sandwich"},"geometry":{"type":"Point","coordinates":[1.337427,51.274017]}},{"type":"Feature","properties":{"Name":"Dover"},"geometry":{"type":"Point","coordinates":[1.3134027,51.1278758]}},{"type":"Feature","properties":{"Name":"Rye"},"geometry":{"type":"Point","coordinates":[0.73726,50.949708]}},{"type":"Feature","properties":{"Name":"Winchelsea"},"geometry":{"type":"Point","coordinates":[0.7095541,50.9249721]}},{"type":"Feature","properties":{"Name":"Shoreham-by-Sea"},"geometry":{"type":"Point","coordinates":[-0.2715558,50.8342086]}},{"type":"Feature","properties":{"Name":"Chichester"},"geometry":{"type":"Point","coordinates":[-0.774936,50.83761]}},{"type":"Feature","properties":{"Name":"Portsmouth"},"geometry":{"type":"Point","coordinates":[-1.0879769,50.8197675]}},{"type":"Feature","properties":{"Name":"Havant"},"geometry":{"type":"Point","coordinates":[-0.9847132,50.8518324]}},{"type":"Feature","properties":{"Name":"Isla de Wight"},"geometry":{"type":"Point","coordinates":[-1.304734,50.6938479]}},{"type":"Feature","properties":{"Name":"Lymington"},"geometry":{"type":"Point","coordinates":[-1.5419099,50.758531]}},{"type":"Feature","properties":{"Name":"Poole"},"geometry":{"type":"Point","coordinates":[-1.987248,50.71505]}},{"type":"Feature","properties":{"Name":"Weymouth"},"geometry":{"type":"Point","coordinates":[-2.4546253,50.6099306]}},{"type":"Feature","properties":{"Name":"Exmouth"},"geometry":{"type":"Point","coordinates":[-3.413702,50.619957]}},{"type":"Feature","properties":{"Name":"Exeter"},"geometry":{"type":"Point","coordinates":[-3.5274889,50.7260367]}},{"type":"Feature","properties":{"Name":"Topsham"},"geometry":{"type":"Point","coordinates":[-3.466689,50.684555]}},{"type":"Feature","properties":{"Name":"Teignmouth"},"geometry":{"type":"Point","coordinates":[-3.496688,50.547033]}},{"type":"Feature","properties":{"Name":"Paignton"},"geometry":{"type":"Point","coordinates":[-3.564235,50.43508]}},{"type":"Feature","properties":{"Name":"Plymouth"},"geometry":{"type":"Point","coordinates":[-4.1426565,50.3754565]}},{"type":"Feature","properties":{"Name":"Brixham"},"geometry":{"type":"Point","coordinates":[-3.513924,50.39514]}},{"type":"Feature","properties":{"Name":"Dartmouth"},"geometry":{"type":"Point","coordinates":[-3.578807,50.352517]}},{"type":"Feature","properties":{"Name":"Kingswear"},"geometry":{"type":"Point","coordinates":[-3.5703255,50.3495828]}},{"type":"Feature","properties":{"Name":"Kingsbridge"},"geometry":{"type":"Point","coordinates":[-3.777493,50.283948]}},{"type":"Feature","properties":{"Name":"Salcombe"},"geometry":{"type":"Point","coordinates":[-3.769791,50.23758]}},{"type":"Feature","properties":{"Name":"Saltash"},"geometry":{"type":"Point","coordinates":[-4.2153683,50.4090195]}},{"type":"Feature","properties":{"Name":"Looe"},"geometry":{"type":"Point","coordinates":[-4.455232,50.3562269]}},{"type":"Feature","properties":{"Name":"Landulph"},"geometry":{"type":"Point","coordinates":[-4.210047,50.434074]}},{"type":"Feature","properties":{"Name":"Falmouth"},"geometry":{"type":"Point","coordinates":[-5.06627,50.152571]}},{"type":"Feature","properties":{"Name":"Mount's Bay"},"geometry":{"type":"Point","coordinates":[-5.4689926,50.1193978]}},{"type":"Feature","properties":{"Name":"Mousehole"},"geometry":{"type":"Point","coordinates":[-5.539062,50.084245]}},{"type":"Feature","properties":{"Name":"Penzance"},"geometry":{"type":"Point","coordinates":[-5.5407735,50.1182948]}},{"type":"Feature","properties":{"Name":"Padstow"},"geometry":{"type":"Point","coordinates":[-4.939017,50.542062]}},{"type":"Feature","properties":{"Name":"Northam"},"geometry":{"type":"Point","coordinates":[-4.2134026,51.0405037]}},{"type":"Feature","properties":{"Name":"Bideford"},"geometry":{"type":"Point","coordinates":[-4.206666,51.016684]}},{"type":"Feature","properties":{"Name":"Minehead"},"geometry":{"type":"Point","coordinates":[-3.481152,51.20428]}},{"type":"Feature","properties":{"Name":"Bridgwater"},"geometry":{"type":"Point","coordinates":[-3.003632,51.127889]}},{"type":"Feature","properties":{"Name":"Brístol"},"geometry":{"type":"Point","coordinates":[-2.58791,51.454513]}},{"type":"Feature","properties":{"Name":"Newport"},"geometry":{"type":"Point","coordinates":[-2.997664,51.584151]}},{"type":"Feature","properties":{"Name":"Carmarthen"},"geometry":{"type":"Point","coordinates":[-4.3119032,51.8575796]}},{"type":"Feature","properties":{"Name":"Pembroke"},"geometry":{"type":"Point","coordinates":[-4.91837,51.6762456]}},{"type":"Feature","properties":{"Name":"Galway"},"geometry":{"type":"Point","coordinates":[-9.0512662,53.274001]}},{"type":"Feature","properties":{"Name":"Limerick"},"geometry":{"type":"Point","coordinates":[-8.6267299,52.663839]}},{"type":"Feature","properties":{"Name":"Dingle"},"geometry":{"type":"Point","coordinates":[-10.2671142,52.1408534]}},{"type":"Feature","properties":{"Name":"Castlehaven"},"geometry":{"type":"Point","coordinates":[-9.1935134,51.5117646]}},{"type":"Feature","properties":{"Name":"Kinsale"},"geometry":{"type":"Point","coordinates":[-8.5222327,51.7058853]}},{"type":"Feature","properties":{"Name":"Cork"},"geometry":{"type":"Point","coordinates":[-8.4756035,51.8985143]}},{"type":"Feature","properties":{"Name":"Waterford"},"geometry":{"type":"Point","coordinates":[-7.1115235,52.2572983]}},{"type":"Feature","properties":{"Name":"Wexford"},"geometry":{"type":"Point","coordinates":[-6.4633381,52.336916]}},{"type":"Feature","properties":{"Name":"Abbey Assaroe Cemetery"},"geometry":{"type":"Point","coordinates":[-8.2008741,54.5090295]}},{"type":"Feature","properties":{"Name":"Leith"},"geometry":{"type":"Point","coordinates":[-3.1665302,55.9754642]}},{"type":"Feature","properties":{"Name":"Calais"},"geometry":{"type":"Point","coordinates":[1.8612592,50.9516038]}},{"type":"Feature","properties":{"Name":"Boulogne-sur-Mer"},"geometry":{"type":"Point","coordinates":[1.613334,50.725231]}},{"type":"Feature","properties":{"Name":"Dieppe"},"geometry":{"type":"Point","coordinates":[1.0878759,49.9275109]}},{"type":"Feature","properties":{"Name":"La Rochelle"},"geometry":{"type":"Point","coordinates":[-1.151139,46.160329]}},{"type":"Feature","properties":{"Name":"Saint-Malo"},"geometry":{"type":"Point","coordinates":[-2.0184218,48.649221]}},{"type":"Feature","properties":{"Name":"Southampton"},"geometry":{"type":"Point","coordinates":[-1.4049018,50.9105468]}},{"type":"Feature","properties":{"Name":"Malpica"},"geometry":{"type":"Point","coordinates":[-8.8106438,43.3230079]}},{"type":"Feature","properties":{"Name":"Caión"},"geometry":{"type":"Point","coordinates":[-8.6058413,43.3178024]}},{"type":"Feature","properties":{"Name":"Burgo"},"geometry":{"type":"Point","coordinates":[-8.3643761,43.3158805]}},{"type":"Feature","properties":{"Name":"La Coruña"},"geometry":{"type":"Point","coordinates":[-8.4103923,43.3637626]}},{"type":"Feature","properties":{"Name":"Fowey"},"geometry":{"type":"Point","coordinates":[-4.6437079,50.3372663]}},{"type":"Feature","properties":{"Name":"Amberes"},"geometry":{"type":"Point","coordinates":[4.4149903,51.2199302]}},{"type":"Feature","properties":{"Name":"Hamburgo"},"geometry":{"type":"Point","coordinates":[9.9871703,53.5488282]}},{"type":"Feature","properties":{"Name":"Lübeck"},"geometry":{"type":"Point","coordinates":[10.6865593,53.8654673]}},{"type":"Feature","properties":{"Name":"Reikiavik"},"geometry":{"type":"Point","coordinates":[-21.9407552,64.1469868]}},{"type":"Feature","properties":{"Name":"Stavanger"},"geometry":{"type":"Point","coordinates":[5.7331073,58.9699756]}},{"type":"Feature","properties":{"Name":"Estocolmo"},"geometry":{"type":"Point","coordinates":[18.0656255,59.3327036]}},{"type":"Feature","properties":{"Name":"Gotemburgo"},"geometry":{"type":"Point","coordinates":[11.97456,57.70887]}},{"type":"Feature","properties":{"Name":"Gdansk"},"geometry":{"type":"Point","coordinates":[18.6466384,54.3520252]}},{"type":"Feature","properties":{"Name":"Ribe"},"geometry":{"type":"Point","coordinates":[8.774665,55.326936]}},{"type":"Feature","properties":{"Name":"Drogheda"},"geometry":{"type":"Point","coordinates":[-6.3564231,53.7179018]}},{"type":"Feature","properties":{"Name":"Dublín"},"geometry":{"type":"Point","coordinates":[-6.2603097,53.3498053]}},{"type":"Feature","properties":{"Name":"Brest"},"geometry":{"type":"Point","coordinates":[-4.4855959,48.3899275]}},{"type":"Feature","properties":{"Name":"Nantes"},"geometry":{"type":"Point","coordinates":[-1.5529219,47.2179648]}},{"type":"Feature","properties":{"Name":"New Ross"},"geometry":{"type":"Point","coordinates":[-6.9454567,52.3958337]}},{"type":"Feature","properties":{"Name":"Porto de Barizo"},"geometry":{"type":"Point","coordinates":[-8.8803494,43.31495]}},{"type":"Feature","properties":{"Name":"Corme-Porto"},"geometry":{"type":"Point","coordinates":[-8.9630076,43.2650806]}},{"type":"Feature","properties":{"Name":"Lage"},"geometry":{"type":"Point","coordinates":[-9.0063506,43.2212167]}},{"type":"Feature","properties":{"Name":"Camariñas"},"geometry":{"type":"Point","coordinates":[-9.1828065,43.1305138]}},{"type":"Feature","properties":{"Name":"A Ponte do Porto"},"geometry":{"type":"Point","coordinates":[-9.1172549,43.1387757]}},{"type":"Feature","properties":{"Name":"Porto de Cereixo"},"geometry":{"type":"Point","coordinates":[-9.1263039,43.1317874]}},{"type":"Feature","properties":{"Name":"Muxía"},"geometry":{"type":"Point","coordinates":[-9.2182913,43.1041888]}},{"type":"Feature","properties":{"Name":"Finisterre"},"geometry":{"type":"Point","coordinates":[-9.2650315,42.9078005]}},{"type":"Feature","properties":{"Name":"Corcubión"},"geometry":{"type":"Point","coordinates":[-9.1922555,42.9425685]}},{"type":"Feature","properties":{"Name":"Cee"},"geometry":{"type":"Point","coordinates":[-9.192,42.9576691]}},{"type":"Feature","properties":{"Name":"Muros"},"geometry":{"type":"Point","coordinates":[-9.0578552,42.7746007]}},{"type":"Feature","properties":{"Name":"Noia"},"geometry":{"type":"Point","coordinates":[-8.8882891,42.7842757]}},{"type":"Feature","properties":{"Name":"Padrón"},"geometry":{"type":"Point","coordinates":[-8.6602439,42.7366514]}},{"type":"Feature","properties":{"Name":"Betanzos"},"geometry":{"type":"Point","coordinates":[-8.2131234,43.2784298]}},{"type":"Feature","properties":{"Name":"Ferrol"},"geometry":{"type":"Point","coordinates":[-8.2192169,43.4900742]}},{"type":"Feature","properties":{"Name":"Burdeos"},"geometry":{"type":"Point","coordinates":[-0.5810938,44.8416106]}}]}